{
"type": "FeatureCollection",
"name": "guanxia1",
"crs": { "type": "name", "properties": { "name": "urn:ogc:def:crs:OGC:1.3:CRS84" } },
"features": [
{ "type": "Feature", "properties": { "pkuid": 1, "dept": "环卫", "name": "中片区" }, "geometry": { "type": "Polygon", "coordinates": [ [ [ 110.995931943382018, 34.995931193755567 ], [ 111.000238478105516, 34.998960916721664 ], [ 111.003835701227459, 35.001409514958496 ], [ 111.006520952290344, 35.003277040626408 ], [ 111.008800882438052, 35.004729531118713 ], [ 111.012094114873648, 35.000413483838905 ], [ 111.014120719449409, 34.997591329821539 ], [ 111.015488677538045, 34.995661418463754 ], [ 111.016375317039945, 34.995951945664245 ], [ 111.014576705478973, 34.998089364073856 ], [ 111.012550100903226, 35.000786996929662 ], [ 111.010878152128228, 35.002965789308703 ], [ 111.009332866139218, 35.004999276513672 ], [ 111.0127020962464, 35.007468443024628 ], [ 111.027179652684325, 35.018236457509197 ], [ 111.028851601459323, 35.019605698778079 ], [ 111.032360160631114, 35.021514299864549 ], [ 111.036514700011381, 35.02403482976343 ], [ 111.040352582426692, 35.026270049492091 ], [ 111.045672419437977, 35.028759317391987 ], [ 111.054842805143252, 35.032824958596336 ], [ 111.060010646811392, 35.034774735170906 ], [ 111.067863739542432, 35.037595606169475 ], [ 111.07260092773825, 35.038591184447924 ], [ 111.076020822959791, 35.039337860195886 ], [ 111.080935339055898, 35.040478601634604 ], [ 111.082759283174056, 35.041017855679485 ], [ 111.082379294816121, 35.0414948851368 ], [ 111.075412841586996, 35.039918603282217 ], [ 111.069561020874531, 35.038508220054723 ], [ 111.058718686394243, 35.034899187415334 ], [ 111.052917530796179, 35.032555304982871 ], [ 111.039098620845309, 35.026114467731318 ], [ 111.032398159466766, 35.022287063176009 ], [ 111.027002324783766, 35.019175220092755 ], [ 111.024367738835323, 35.021675076725693 ], [ 111.022531128438544, 35.023676981486311 ], [ 111.020175200619235, 35.028219982446771 ], [ 111.017413951884791, 35.033633914098246 ], [ 111.014576705478717, 35.039006005150284 ], [ 111.01062482655604, 35.046265026511954 ], [ 111.005684977902604, 35.055659316435019 ], [ 111.002087754780661, 35.054456575840362 ], [ 110.994791978307958, 35.052299893170364 ], [ 110.983455658962356, 35.048888485535869 ], [ 110.989256814560392, 35.037253373334522 ], [ 110.994829977143738, 35.025243204398699 ], [ 110.997730554942763, 35.019745733524459 ], [ 110.999364504881967, 35.016509313661743 ], [ 111.003481045426355, 35.008075348592037 ], [ 111.005836973245664, 35.00735951077943 ], [ 111.007255596448715, 35.006664415894306 ], [ 111.008471559194149, 35.005154898452304 ], [ 111.00318338787929, 35.001876400371806 ], [ 110.996166269535749, 34.996979158566987 ], [ 110.99469698121834, 34.996107584811632 ], [ 110.995931943382018, 34.995931193755567 ] ] ] } },
{ "type": "Feature", "properties": { "pkuid": 2, "dept": "环卫", "name": "南片区" }, "geometry": { "type": "Polygon", "coordinates": [ [ [ 110.961258005718406, 34.996086832942431 ], [ 110.965108554412325, 34.998950541149469 ], [ 110.967920468261198, 35.001544393240422 ], [ 110.969795077493757, 35.003494915844186 ], [ 110.971644354169101, 35.005383143426847 ], [ 110.973974949431238, 35.008122033449176 ], [ 110.975393572634289, 35.009615934809204 ], [ 110.973873619202436, 35.014362002873547 ], [ 110.973214972715283, 35.016426326852653 ], [ 110.973214972715283, 35.016581927050595 ], [ 110.97943411550709, 35.018521717997672 ], [ 110.982043368898388, 35.019299696090059 ], [ 110.983474658380004, 35.019693868831482 ], [ 110.984601957175215, 35.019953191967161 ], [ 110.986261239671606, 35.021664704034478 ], [ 110.987223876845135, 35.022618986114225 ], [ 110.989199816306495, 35.024548261511761 ], [ 110.990821099967079, 35.026145584107091 ], [ 110.99334168940814, 35.028458534880627 ], [ 110.997521561345621, 35.020368107273455 ], [ 111.003474712286859, 35.008064974175689 ], [ 111.006261293578504, 35.00719351850784 ], [ 111.007350593537964, 35.00661254290479 ], [ 111.008490558611825, 35.005118586693051 ], [ 110.999421503135352, 34.999349999727905 ], [ 110.994228328909955, 34.995863750015914 ], [ 110.961650660354806, 34.996071269036989 ], [ 110.961258005718406, 34.996086832942431 ] ] ] } },
{ "type": "Feature", "properties": { "pkuid": 3, "dept": "环卫", "name": "西片区" }, "geometry": { "type": "Polygon", "coordinates": [ [ [ 110.931435252758149, 35.029742038742818 ], [ 110.936248438625555, 35.031816345808956 ], [ 110.939389675717976, 35.032438627662692 ], [ 110.943645545327058, 35.032189715489793 ], [ 110.948914717224014, 35.031733374537112 ], [ 110.95727446109899, 35.030862171097205 ], [ 110.964620902686079, 35.030115417900014 ], [ 110.966799502605014, 35.029783525400063 ], [ 110.96973807923986, 35.022232606940143 ], [ 110.971511358243632, 35.019245237864467 ], [ 110.973233972133031, 35.016631200384779 ], [ 110.98109973114272, 35.019048150649894 ], [ 110.983113669439874, 35.019608292016173 ], [ 110.984630456302028, 35.019958378421407 ], [ 110.993354355686705, 35.028489650364129 ], [ 110.983335329315324, 35.048950700932515 ], [ 110.983993975802449, 35.049116608425244 ], [ 110.979307452721017, 35.058510570337901 ], [ 110.972024342526851, 35.072817177246051 ], [ 110.96538721254133, 35.086084831700624 ], [ 110.959358063928406, 35.076839162898672 ], [ 110.957128798895098, 35.073978183149059 ], [ 110.954494212946628, 35.071324431098496 ], [ 110.951656966540554, 35.069251127261282 ], [ 110.951302310739791, 35.068836460173152 ], [ 110.954342217603426, 35.065353173455009 ], [ 110.955862171035236, 35.06349224954063 ], [ 110.958965409291906, 35.059801377998554 ], [ 110.959269399978268, 35.057064219437734 ], [ 110.962511967299505, 35.048852193199238 ], [ 110.965551874163083, 35.041427478969361 ], [ 110.968895771713051, 35.034105801109583 ], [ 110.970947708846026, 35.02993650726669 ], [ 110.964969225347559, 35.030538060304487 ], [ 110.959928046465365, 35.031077379953508 ], [ 110.940187651269696, 35.032972749141564 ], [ 110.93669175837654, 35.032599383038118 ], [ 110.932030567852294, 35.030774013088852 ], [ 110.930155958619707, 35.029861312825687 ], [ 110.931523916708358, 35.029736852909188 ], [ 110.931435252758149, 35.029742038742818 ] ] ] } },
{ "type": "Feature", "properties": { "pkuid": 4, "dept": "环卫", "name": "东片区" }, "geometry": { "type": "Polygon", "coordinates": [ [ [ 111.011270806764188, 35.045292873559539 ], [ 111.017198625148268, 35.050809364050373 ], [ 111.017198625148268, 35.049523598815931 ], [ 111.020339862240689, 35.043924062588943 ], [ 111.023734424905044, 35.047615651809828 ], [ 111.027128987569455, 35.046080966440854 ], [ 111.028496945658077, 35.043052989120014 ], [ 111.041061894027749, 35.049150308343513 ], [ 111.040605907998199, 35.050892315951046 ], [ 111.041264554485323, 35.052385435755241 ], [ 111.042176526544395, 35.05292461119781 ], [ 111.04497577411469, 35.053080141913917 ], [ 111.04584974733794, 35.053328990443553 ], [ 111.048383003057637, 35.054324376978855 ], [ 111.055121463272044, 35.048725169894141 ], [ 111.055906772545086, 35.051006374676874 ], [ 111.057680051548857, 35.052872767559954 ], [ 111.060010646810994, 35.054199954325497 ], [ 111.06178392581478, 35.05548564593488 ], [ 111.056565419032211, 35.059425542532679 ], [ 111.056920074832959, 35.059674371724327 ], [ 111.06223991184433, 35.055775960593408 ], [ 111.067863739542005, 35.059715843182531 ], [ 111.062645232759465, 35.063925086605032 ], [ 111.056236095788634, 35.06935738536351 ], [ 111.056742746932613, 35.069730583455538 ], [ 111.068446388357572, 35.060068349726791 ], [ 111.073107578881803, 35.062929817112128 ], [ 111.076147485745437, 35.065666779018173 ], [ 111.078174090321184, 35.067740173911098 ], [ 111.082328629701479, 35.067512103051108 ], [ 111.090232387546919, 35.066351005155518 ], [ 111.098896122108258, 35.064941078362395 ], [ 111.100872061569618, 35.064484920362133 ], [ 111.101834698743076, 35.063365249008413 ], [ 111.101530708056728, 35.061706448402546 ], [ 111.098845456993828, 35.059829889584009 ], [ 111.095450894329446, 35.058253961563963 ], [ 111.092562982809014, 35.057092731979054 ], [ 111.089675071288553, 35.055682645280029 ], [ 111.08668582953932, 35.054396956772472 ], [ 111.084405899391598, 35.053443045766237 ], [ 111.080707346040853, 35.051825519027794 ], [ 111.076806132232534, 35.049917625796994 ], [ 111.082176634358291, 35.041497477680551 ], [ 111.069358360416629, 35.03849007158243 ], [ 111.057325395748123, 35.034403970069143 ], [ 111.04815501004289, 35.030359150596396 ], [ 111.03926328246672, 35.026272642518848 ], [ 111.033487459425842, 35.022912010713185 ], [ 111.028623608444065, 35.020173615985783 ], [ 111.027002324783453, 35.019177813344577 ], [ 111.022619792388369, 35.02392851268516 ], [ 111.011574797450535, 35.045168437146437 ], [ 111.011270806764188, 35.045292873559539 ] ] ] } },
{ "type": "Feature", "properties": { "pkuid": 5, "dept": "环卫", "name": "北片区" }, "geometry": { "type": "Polygon", "coordinates": [ [ [ 110.968826107180703, 35.079733729624586 ], [ 110.97723651617008, 35.083589537229258 ], [ 110.977287181284467, 35.085247893049718 ], [ 110.980225757919314, 35.088937613779549 ], [ 110.982455022952635, 35.091424971756688 ], [ 110.983873646155686, 35.093290440450794 ], [ 110.984633622871584, 35.094078069974664 ], [ 110.984734953100372, 35.094243885747083 ], [ 110.987116213476895, 35.092813713621858 ], [ 110.987610198342239, 35.093155713586022 ], [ 110.984924947279367, 35.094689513964525 ], [ 110.986603229193705, 35.096482365670191 ], [ 110.988705831441052, 35.09909384790479 ], [ 110.99096042903156, 35.101580896069585 ], [ 110.99139108250391, 35.102036846669165 ], [ 110.996710919515252, 35.099342556135731 ], [ 111.005931970334956, 35.094368247355092 ], [ 111.008819881855374, 35.092792986305199 ], [ 111.013075751464442, 35.090305670055585 ], [ 111.017154293173178, 35.087424433896032 ], [ 111.019510220992458, 35.085724664107872 ], [ 111.021182169767471, 35.084501637102917 ], [ 111.02277812087091, 35.083485888870989 ], [ 111.024424737088722, 35.081516545040493 ], [ 111.026071353306492, 35.079712998983595 ], [ 111.028705939254991, 35.076872851374262 ], [ 111.031897841461856, 35.073141120286799 ], [ 111.03255648794898, 35.072311823534754 ], [ 111.037015018015609, 35.076935045446419 ], [ 111.039598938849707, 35.079547153666219 ], [ 111.041321552739106, 35.081184861401539 ], [ 111.044006803802034, 35.083941940662243 ], [ 111.045881413034579, 35.085538101851817 ], [ 111.046818717650879, 35.086367264168032 ], [ 111.047249371123229, 35.085786851431749 ], [ 111.043652148001243, 35.082594507553225 ], [ 111.041346885296349, 35.080189802393093 ], [ 111.040029592322114, 35.078676460218681 ], [ 111.035007412857851, 35.073949676505556 ], [ 111.033006140839305, 35.071938637246745 ], [ 111.031454521710955, 35.070368126248169 ], [ 111.030339889194295, 35.068460666304759 ], [ 111.02897193110563, 35.066387289714825 ], [ 111.027654638131395, 35.06336006530907 ], [ 111.02681866374391, 35.061576853185713 ], [ 111.02600802191364, 35.060021694536303 ], [ 111.01752161525269, 35.051063403980123 ], [ 111.015343015333755, 35.049196969745935 ], [ 111.01311375030042, 35.046957192362434 ], [ 111.01113781083906, 35.045277319018332 ], [ 111.005868638942118, 35.055791513135325 ], [ 110.983677318837607, 35.049155492945154 ], [ 110.968883105434642, 35.079718181644346 ], [ 110.968826107180703, 35.079733729624586 ] ] ] } }
]
}
