{
"type": "FeatureCollection",
"name": "园林各片区",
"crs": { "type": "name", "properties": { "name": "urn:ogc:def:crs:OGC:1.3:CRS84" } },
"features": [
{ "type": "Feature", "properties": { "id": 3, "zone_code": "YL_M", "zone_name": "园林中片区", "dept": "园林", "manager_org": "园林中片区", "manager_person": null, "manager_phone": null, "remark": null, "area_m2": null, "created_at": "2026-04-16T00:00:00", "updated_at": null }, "geometry": { "type": "Polygon", "coordinates": [ [ [ 110.9831686163824, 35.049396653644351 ], [ 110.991650621961568, 35.031768850888078 ], [ 111.002537716912826, 35.009450965458441 ], [ 111.002799837418266, 35.009161788310806 ], [ 111.003120801302444, 35.00891291988647 ], [ 111.003373292891339, 35.008723639169489 ], [ 111.003689977257054, 35.008555389275593 ], [ 111.004062295362687, 35.008401159902185 ], [ 111.00481977012933, 35.008211878001013 ], [ 111.002979577193415, 35.007086693215136 ], [ 111.002380444609599, 35.006687091155797 ], [ 111.002166468686838, 35.006532858259952 ], [ 111.001421832475557, 35.006112221611495 ], [ 111.000745668559546, 35.005726636117096 ], [ 110.997963981563316, 35.003959930249067 ], [ 110.994198005322289, 35.001607768586702 ], [ 110.993145243782209, 35.000913675175362 ], [ 110.993196598003692, 35.00085057548236 ], [ 110.994831374053732, 35.001895219689494 ], [ 110.998100926153896, 35.003977457280399 ], [ 111.002132232539154, 35.006445225803219 ], [ 111.004896801461541, 35.008183836200644 ], [ 111.00582973648487, 35.007903417668103 ], [ 111.006471664253212, 35.007601966673491 ], [ 111.006925293209534, 35.00726546192552 ], [ 111.007524425793335, 35.006515331776129 ], [ 111.007960936675815, 35.005940461024849 ], [ 111.006000917223076, 35.00490287919969 ], [ 111.005256281011796, 35.004271910844722 ], [ 111.0029966952672, 35.002442075096958 ], [ 111.000831258928628, 35.000822531158747 ], [ 110.9989397117712, 34.999427313924826 ], [ 110.996414795882373, 34.99789885769021 ], [ 110.993290747409674, 34.995963707009814 ], [ 110.990175257973931, 34.994035522234086 ], [ 110.987248067350293, 34.992065221047667 ], [ 110.98557905515257, 34.990838141181683 ], [ 110.985810149149131, 34.990725950104689 ], [ 110.987847199934066, 34.992198445754667 ], [ 110.989730188054565, 34.99353068089804 ], [ 110.991441995436844, 34.99458944178388 ], [ 110.993153802819108, 34.995655200498454 ], [ 110.996038198258262, 34.997422085683858 ], [ 110.998700058737697, 34.999062730626726 ], [ 111.000480338415258, 35.000338765063404 ], [ 111.002791278381324, 35.002021417415627 ], [ 111.005470256934558, 35.004229846114704 ], [ 111.00614642085057, 35.004734621447525 ], [ 111.008080763192538, 35.00579323737783 ], [ 111.009972310349951, 35.003304416582495 ], [ 111.012497226238779, 34.999946141202294 ], [ 111.015775337375842, 34.995620142866777 ], [ 111.019062007549778, 34.99125885635091 ], [ 111.019318778657123, 34.99140610614927 ], [ 111.018052041194267, 34.993060895191014 ], [ 111.01622896633215, 34.995437842939857 ], [ 111.011821062322795, 35.001222161862877 ], [ 111.008671336739411, 35.005414661068905 ], [ 111.008303298152228, 35.005898397152748 ], [ 111.01003222360832, 35.006851839609759 ], [ 111.01124760684975, 35.007665061159656 ], [ 111.01276255638308, 35.008891888717351 ], [ 111.015210440939711, 35.010756631366078 ], [ 111.015826691597354, 35.011226315481231 ], [ 111.016117698852327, 35.011345488633694 ], [ 111.017179019429335, 35.012158665509943 ], [ 111.017307404983001, 35.012270827203231 ], [ 111.018830913553231, 35.013322335597429 ], [ 111.022417150019081, 35.016105262575039 ], [ 111.025284427384435, 35.018446493029103 ], [ 111.027021911877426, 35.019820357535302 ], [ 111.027270123947858, 35.020030640881913 ], [ 111.028639569853638, 35.02095588118226 ], [ 111.029469796434057, 35.021502609165708 ], [ 111.031857767732333, 35.022855394743594 ], [ 111.036402616332254, 35.025287548783673 ], [ 111.040767725157096, 35.02762851631914 ], [ 111.044961653243661, 35.029878305175878 ], [ 111.047726222165991, 35.03123796063214 ], [ 111.048787542743, 35.031707527107322 ], [ 111.053049943124876, 35.033354492672046 ], [ 111.054042791406587, 35.033739947904969 ], [ 111.05576315782578, 35.034293598603924 ], [ 111.058647553264919, 35.035162612390053 ], [ 111.059238126811792, 35.035372856272573 ], [ 111.061138233006119, 35.036206818345022 ], [ 111.063637471784219, 35.037173923367938 ], [ 111.06567452256914, 35.038000859164832 ], [ 111.066829992552172, 35.038365268893386 ], [ 111.070527496497888, 35.039143138069051 ], [ 111.075748509013792, 35.040320439492319 ], [ 111.075688595755409, 35.040446577924399 ], [ 111.071383400189006, 35.039465496097655 ], [ 111.067831399870784, 35.038694637826673 ], [ 111.066770079293775, 35.038491410343866 ], [ 111.065006917690042, 35.037916764381301 ], [ 111.06105264263698, 35.036332963127528 ], [ 111.058904324372222, 35.035463961787009 ], [ 111.056328054261911, 35.034587943018018 ], [ 111.053546367265696, 35.033690890067199 ], [ 111.050952979081572, 35.032681693727717 ], [ 111.048950164444307, 35.031917779878491 ], [ 111.047358183578766, 35.03121693520449 ], [ 111.043908891703481, 35.02951385760155 ], [ 111.040185710647066, 35.027488340509358 ], [ 111.036008900634315, 35.025231476882908 ], [ 111.031070336336427, 35.022561008077723 ], [ 111.02929005665888, 35.021530646399661 ], [ 111.027056148025011, 35.020058678620615 ], [ 111.024591145394524, 35.018046946467635 ], [ 111.021013467965574, 35.015193987090711 ], [ 111.017649766459442, 35.012663391918458 ], [ 111.015176204791985, 35.010973948232227 ], [ 111.012420194906539, 35.008772711990055 ], [ 111.010948040557793, 35.007630008673374 ], [ 111.01020340434647, 35.007118240663047 ], [ 111.008192030672319, 35.006038609975697 ], [ 111.007344686018101, 35.007139272288178 ], [ 111.006985206467832, 35.007503819598348 ], [ 111.006659963065189, 35.007707124123378 ], [ 111.006326160625648, 35.007896407192497 ], [ 111.005932444927709, 35.008092700283029 ], [ 111.005769823226402, 35.008148783936662 ], [ 111.004640030354096, 35.008422191197532 ], [ 111.004075133917951, 35.008583430948633 ], [ 111.003458883260336, 35.008877867934928 ], [ 111.003236348300632, 35.009074158670323 ], [ 111.006223452182681, 35.010651477836468 ], [ 111.009475886209017, 35.012439069454764 ], [ 111.012308927426659, 35.014023333683099 ], [ 111.012437312980325, 35.014233631937174 ], [ 111.013926585402928, 35.015081829406213 ], [ 111.014979346943022, 35.015698694767373 ], [ 111.015484330120785, 35.016252467662156 ], [ 111.0166997133622, 35.017016527904886 ], [ 111.018753882220935, 35.018152090488861 ], [ 111.019062007549721, 35.018383406859712 ], [ 111.0207566968582, 35.019448855634629 ], [ 111.0213729475158, 35.019841385894303 ], [ 111.021424301737227, 35.019876433147282 ], [ 111.021321593294275, 35.02003064088192 ], [ 111.023024841639639, 35.021103077537461 ], [ 111.023855068220044, 35.021565692928554 ], [ 111.02691064439739, 35.023339027679228 ], [ 111.02690208536049, 35.023465192322348 ], [ 111.026739463659155, 35.02369649366242 ], [ 111.028631010816596, 35.024684773834878 ], [ 111.03013740131297, 35.025476791164841 ], [ 111.030034692870032, 35.025574916671495 ], [ 111.026516928699479, 35.023668457171205 ], [ 111.026730904622255, 35.023381082581899 ], [ 111.02397489473681, 35.021825036775518 ], [ 111.022074788542483, 35.024264230540858 ], [ 111.020944995670163, 35.026058533519247 ], [ 111.018497111113533, 35.030726340356914 ], [ 111.015672628932791, 35.036108705601762 ], [ 111.012385958758813, 35.042275563305537 ], [ 111.009732657316306, 35.047432941399705 ], [ 111.006839702840267, 35.05247788750831 ], [ 111.004990950867409, 35.056009164366749 ], [ 110.998075249042998, 35.053795127684978 ], [ 110.994138092063778, 35.052632033733026 ], [ 110.987051209501161, 35.050544028331636 ], [ 110.983165406743396, 35.049394901915001 ], [ 110.9831686163824, 35.049396653644351 ] ] ] } },
{ "type": "Feature", "properties": { "id": 4, "zone_code": "YL_E", "zone_name": "园林东片区", "dept": "园林", "manager_org": "园林东片区", "manager_person": null, "manager_phone": null, "remark": null, "area_m2": null, "created_at": "2026-04-16T00:00:00", "updated_at": null }, "geometry": { "type": "Polygon", "coordinates": [ [ [ 111.024017689921237, 35.021842559978765 ], [ 111.026739463659084, 35.023398605451639 ], [ 111.02651692869938, 35.023692989101555 ], [ 111.030009015759205, 35.025571412191148 ], [ 111.046527956998091, 35.034065831365453 ], [ 111.052621991278983, 35.037065299823659 ], [ 111.051081364634953, 35.039139634170468 ], [ 111.057517760392287, 35.042054825863161 ], [ 111.068884161410594, 35.047324331494586 ], [ 111.08083257693886, 35.052705603419561 ], [ 111.094663980587626, 35.058955281481829 ], [ 111.096564086781967, 35.059894093138624 ], [ 111.096119016862559, 35.060104273373909 ], [ 111.094081966077653, 35.063060751345979 ], [ 111.093003527426802, 35.064714090450835 ], [ 111.093003527426802, 35.065218492324895 ], [ 111.093260298534133, 35.065680857971472 ], [ 111.093790958822652, 35.066213275774786 ], [ 111.090110572950763, 35.066801733517053 ], [ 111.083160634978725, 35.067936604325325 ], [ 111.079685665992699, 35.068286869906679 ], [ 111.076963892254895, 35.068440986286298 ], [ 111.074909723396161, 35.068651144516764 ], [ 111.073420450973572, 35.068931354648988 ], [ 111.072102359289218, 35.069211563819181 ], [ 111.070116662725795, 35.069757968934056 ], [ 111.068319264974349, 35.070346401120617 ], [ 111.066817153996439, 35.07099086959991 ], [ 111.065396353869147, 35.071719393056988 ], [ 111.063954156149549, 35.072526715541287 ], [ 111.062516237948458, 35.073423341998165 ], [ 111.060804430566179, 35.074754253729971 ], [ 111.058390782157161, 35.076841639987215 ], [ 111.053204005788885, 35.08118435302147 ], [ 111.05019122479608, 35.083803877816393 ], [ 111.047366742615296, 35.086171183477788 ], [ 111.046442366628881, 35.086899571397495 ], [ 111.045175629165996, 35.085835002244039 ], [ 111.04334399526698, 35.083999988587685 ], [ 111.040091561240615, 35.080820134357253 ], [ 111.035829160858782, 35.076575466186661 ], [ 111.032178731616057, 35.072876961423539 ], [ 111.031712264104399, 35.072341084614244 ], [ 111.031018982114574, 35.071647591755166 ], [ 111.030317141087835, 35.070761453414853 ], [ 111.029572504876555, 35.069791243486364 ], [ 111.029084639772577, 35.068996153105111 ], [ 111.028562538521044, 35.068194049674027 ], [ 111.028207338489224, 35.067539051069275 ], [ 111.027484099870208, 35.0660609065608 ], [ 111.026760861251191, 35.064526690349361 ], [ 111.026067579261394, 35.063062502782259 ], [ 111.02474092854014, 35.060256653706162 ], [ 111.024099000771798, 35.059436949258668 ], [ 111.022395752426434, 35.057811528067162 ], [ 111.019785246168453, 35.055310277942247 ], [ 111.01770540019902, 35.053292406879919 ], [ 111.01679814228639, 35.053110235510708 ], [ 111.015651231340286, 35.053278393712112 ], [ 111.015223279494691, 35.053334446368972 ], [ 111.014855240907522, 35.05343954499687 ], [ 111.014572792689421, 35.053579676290347 ], [ 111.01435025772976, 35.053824905475345 ], [ 111.013982219142548, 35.054350394106287 ], [ 111.013819597441255, 35.054609633918645 ], [ 111.013806758885877, 35.054630653326818 ], [ 111.012638450347453, 35.054238290148753 ], [ 111.006903895616873, 35.052328995992283 ], [ 111.00846164033473, 35.049673426418138 ], [ 111.011046469481968, 35.044887577755148 ], [ 111.012946575676267, 35.041229682999408 ], [ 111.015103452977925, 35.037214219162209 ], [ 111.017157621836702, 35.033282657632242 ], [ 111.019588388319505, 35.028650040274158 ], [ 111.020915039040759, 35.026098834794126 ], [ 111.021959241543968, 35.024444713969572 ], [ 111.023979174255032, 35.021816275172533 ], [ 111.024017689921237, 35.021842559978765 ] ] ] } },
{ "type": "Feature", "properties": { "id": 2, "zone_code": "YL_S", "zone_name": "园林南片区", "dept": "园林", "manager_org": "园林南片区", "manager_person": null, "manager_phone": null, "remark": null, "area_m2": null, "created_at": "2026-04-15T00:00:00", "updated_at": null }, "geometry": { "type": "Polygon", "coordinates": [ [ [ 110.976516046569913, 35.018104152371833 ], [ 110.979679259300767, 35.018766855879427 ], [ 110.981507827457506, 35.019128328256201 ], [ 110.983662174998443, 35.019541437587279 ], [ 110.984219152655342, 35.0196361081817 ], [ 110.985643123834834, 35.021615559140457 ], [ 110.986420790752078, 35.022355689363657 ], [ 110.990177762683231, 35.025957273943838 ], [ 110.993172831215787, 35.028840148455735 ], [ 110.999394166553557, 35.015948177180157 ], [ 111.002567888296795, 35.009406746940535 ], [ 111.002827986353608, 35.009124851181959 ], [ 111.003046048360773, 35.008961308159172 ], [ 111.003335046201641, 35.008746119473138 ], [ 111.003681843610664, 35.008556752961148 ], [ 111.004070677069279, 35.00840181639802 ], [ 111.004401710959726, 35.0083157404028 ], [ 111.004811562443123, 35.00821244908898 ], [ 111.003408609288428, 35.007373202329298 ], [ 111.002105491751465, 35.006503819683623 ], [ 111.000676266065767, 35.005677467218312 ], [ 110.998942279020639, 35.004575650947004 ], [ 110.994055588257055, 35.001528363053808 ], [ 110.991617497381455, 34.999875549267458 ], [ 110.986930477853349, 34.996862521569852 ], [ 110.979237880780289, 34.991645417004847 ], [ 110.977787637069824, 34.990646725404389 ], [ 110.976043141012255, 34.992299725584509 ], [ 110.975748888665223, 34.992592440887279 ], [ 110.978207997565605, 34.994245401773519 ], [ 110.978838538309304, 34.994779163262542 ], [ 110.979574169176971, 34.995708933026961 ], [ 110.979994529672751, 34.996259902717796 ], [ 110.980330818069376, 34.997103567868194 ], [ 110.980646088441233, 34.998584265267162 ], [ 110.98083525066437, 35.002044860515277 ], [ 110.98104543091226, 35.004248546384879 ], [ 110.981171539060981, 35.00655546643555 ], [ 110.981129503011402, 35.007054716689879 ], [ 110.980961358813062, 35.007622825342047 ], [ 110.98024674597022, 35.009309912629185 ], [ 110.979195844730739, 35.011926550604613 ], [ 110.978250033615211, 35.014181612226203 ], [ 110.976505537557685, 35.018106304015312 ], [ 110.976516046569913, 35.018104152371833 ] ] ] } },
{ "type": "Feature", "properties": { "id": 1, "zone_code": "YL_E", "zone_name": "园林西片区", "dept": "园林", "manager_org": "园林西片区", "manager_person": null, "manager_phone": null, "remark": null, "area_m2": null, "created_at": "2026-04-15T00:37:57.854", "updated_at": null }, "geometry": { "type": "Polygon", "coordinates": [ [ [ 110.961656303043057, 35.050257770206585 ], [ 110.974035919644578, 35.054369990721071 ], [ 110.979836894486709, 35.056228164701309 ], [ 110.982527201659863, 35.050739547334807 ], [ 110.986310446122147, 35.04282427721396 ], [ 110.989778420212517, 35.035527783746346 ], [ 110.99309926812937, 35.028815811181666 ], [ 110.989736384162939, 35.025545676150074 ], [ 110.985637869328826, 35.021604129024624 ], [ 110.984397805866166, 35.019986146373725 ], [ 110.984187625618276, 35.01964189061507 ], [ 110.980299291032054, 35.018901735825992 ], [ 110.976495028545017, 35.018092721765022 ], [ 110.974098973718895, 35.022946686066383 ], [ 110.970588963578948, 35.029968932861571 ], [ 110.961698339092592, 35.050223357445837 ], [ 110.961656303043057, 35.050257770206585 ] ] ] } },
{ "type": "Feature", "properties": { "id": 3, "zone_code": "YL_N", "zone_name": "园林北片区", "dept": "园林", "manager_org": "园林北片区", "manager_person": null, "manager_phone": null, "remark": null, "area_m2": null, "created_at": "2026-04-16T00:00:00", "updated_at": null }, "geometry": { "type": "Polygon", "coordinates": [ [ [ 110.983168251416032, 35.049402420607336 ], [ 110.990829321451884, 35.051665051505189 ], [ 110.997775778644936, 35.053703946566635 ], [ 111.001012554462534, 35.054736279084487 ], [ 111.004543582627207, 35.055871829781012 ], [ 111.004990215654018, 35.055970759586337 ], [ 111.006188243067015, 35.053622219684847 ], [ 111.006923873934639, 35.052340387363849 ], [ 111.013807277053289, 35.054628745056128 ], [ 111.013943894214435, 35.054396471071556 ], [ 111.014332727673036, 35.053854495871633 ], [ 111.014553416933325, 35.053587808341739 ], [ 111.014826651255575, 35.053441559971716 ], [ 111.015268029776195, 35.053329722806147 ], [ 111.015888061507482, 35.053235091238726 ], [ 111.016381985090021, 35.053149062445939 ], [ 111.016791836573418, 35.05310604801555 ], [ 111.017201688056858, 35.053183473973924 ], [ 111.017690357133191, 35.053288859188228 ], [ 111.018909402570969, 35.054463142375482 ], [ 111.020858824370222, 35.05636432697279 ], [ 111.022634847464943, 35.058050408402792 ], [ 111.024127127225015, 35.059469786696134 ], [ 111.024389852534881, 35.059779465953781 ], [ 111.024705122906724, 35.060200971944838 ], [ 111.025304136613258, 35.061422466811734 ], [ 111.026754380323752, 35.064527734148868 ], [ 111.027784263538436, 35.066686728526868 ], [ 111.028288696133401, 35.067710295548437 ], [ 111.028624984530026, 35.068295185226333 ], [ 111.028877200827509, 35.068673641019743 ], [ 111.029223998236546, 35.069241321419561 ], [ 111.02957079564554, 35.06979179561224 ], [ 111.030369480587581, 35.07083252573738 ], [ 111.031052566393242, 35.071692623262493 ], [ 111.031725143186506, 35.072354892179732 ], [ 111.032177030719481, 35.072879542961154 ], [ 111.030789841083404, 35.074247059471496 ], [ 111.029928102067004, 35.075244730014205 ], [ 111.028950763914295, 35.076319792375791 ], [ 111.026933033534476, 35.078555876716472 ], [ 111.026281474765995, 35.079398692603931 ], [ 111.023107753022714, 35.082881665921022 ], [ 111.0221619419072, 35.083948028017332 ], [ 111.020701189184322, 35.085005776647506 ], [ 111.020102175477803, 35.085444351325179 ], [ 111.019765887081178, 35.08582272758364 ], [ 111.018651931767309, 35.086596673554389 ], [ 111.017516958428686, 35.087405009283266 ], [ 111.017212197069242, 35.087465204176631 ], [ 111.015394137924929, 35.088823877094171 ], [ 111.014038475326004, 35.089778374278758 ], [ 111.010791190495979, 35.092125873884058 ], [ 111.009887415430001, 35.092658996246556 ], [ 111.005263449976269, 35.095186980644506 ], [ 111.003119611447715, 35.09621878848791 ], [ 110.996583005738117, 35.099847209038884 ], [ 110.994165932887313, 35.101171284378019 ], [ 110.993997788689001, 35.101265860365046 ], [ 110.990981702131677, 35.097663297532655 ], [ 110.98832292199576, 35.09445610885551 ], [ 110.985443452599569, 35.090913437470576 ], [ 110.982521947153799, 35.08643328557207 ], [ 110.982416857029804, 35.086218300886181 ], [ 110.977341004043126, 35.084042623981745 ], [ 110.97681555342335, 35.083776035073683 ], [ 110.97224413303158, 35.081892688614793 ], [ 110.969869096230326, 35.08084349958348 ], [ 110.968009001036435, 35.079949098279833 ], [ 110.971755463955191, 35.072367793468892 ], [ 110.978901592383764, 35.058020300111124 ], [ 110.980488453255404, 35.054966401429475 ], [ 110.981171539061052, 35.053538342010611 ], [ 110.983178760428501, 35.049391666508555 ], [ 110.983168251416032, 35.049402420607336 ] ] ] } }
]
}
