{
"type": "FeatureCollection",
"name": "市政管辖道路",
"crs": { "type": "name", "properties": { "name": "urn:ogc:def:crs:OGC:1.3:CRS84" } },
"features": [
{ "type": "Feature", "properties": { "编号": 13, "道路名称": "大禹街", "道路长度": null, "road_type": 2 }, "geometry": { "type": "LineString", "coordinates": [ [ 110.972828299775884, 35.070742886075017 ], [ 110.994068881308692, 35.077588701352333 ] ] } },
{ "type": "Feature", "properties": { "编号": 37, "道路名称": "库东路", "道路长度": null, "road_type": 2 }, "geometry": { "type": "LineString", "coordinates": [ [ 111.021164813024967, 35.074850444159473 ], [ 111.02812550992671, 35.066928539875576 ] ] } },
{ "type": "Feature", "properties": { "编号": 8, "道路名称": "渠北街", "道路长度": null, "road_type": 3 }, "geometry": { "type": "LineString", "coordinates": [ [ 111.00343445417866, 35.030316425436325 ], [ 111.005943889971562, 35.032371247185615 ], [ 111.006840117040426, 35.033270215456014 ], [ 111.007639252843532, 35.03400405977451 ], [ 111.008699788208403, 35.034756243362231 ], [ 111.009693106543082, 35.035618494079841 ], [ 111.010828327497038, 35.036621384178694 ], [ 111.011672274653549, 35.037349083313039 ], [ 111.012852306960966, 35.03846813740337 ], [ 111.013703722676411, 35.03922027990108 ], [ 111.014764258041268, 35.040137517479337 ], [ 111.016048850173362, 35.041311566554107 ], [ 111.017415596453446, 35.042620122204099 ], [ 111.018707657144418, 35.043781906384474 ], [ 111.020044529188851, 35.044974246653183 ], [ 111.021202155819481, 35.046056509675758 ], [ 111.022919924368225, 35.047640134245832 ], [ 111.023487534845216, 35.048202649869353 ] ] } },
{ "type": "Feature", "properties": { "编号": 51, "道路名称": "德新路", "道路长度": null, "road_type": 3 }, "geometry": { "type": "LineString", "coordinates": [ [ 110.981125868722145, 35.002069623803116 ], [ 110.989475717580675, 35.005006081773686 ], [ 110.990685624123714, 35.00564230044256 ], [ 110.991133737658117, 35.006229574822385 ], [ 110.99129804595411, 35.006376392758611 ], [ 110.991671473899487, 35.006449801627909 ], [ 110.992164398787367, 35.006425332012135 ], [ 110.994942702700925, 35.006449801627909 ] ] } },
{ "type": "Feature", "properties": { "编号": 52, "道路名称": "成宝路", "道路长度": null, "road_type": 3 }, "geometry": { "type": "LineString", "coordinates": [ [ 110.986928938993273, 35.004106802716095 ], [ 110.987507752308588, 35.003131043169617 ], [ 110.988362902303507, 35.001754560072925 ], [ 110.989281535049102, 35.000408643098702 ], [ 110.989994782424745, 34.999331893579352 ] ] } },
{ "type": "Feature", "properties": { "编号": 53, "道路名称": "银湖街", "道路长度": null, "road_type": 3 }, "geometry": { "type": "LineString", "coordinates": [ [ 110.989912628276812, 34.99943283944868 ], [ 110.981831647538911, 34.994403748350067 ] ] } },
{ "type": "Feature", "properties": { "编号": 21, "道路名称": "陵园路", "道路长度": null, "road_type": 3 }, "geometry": { "type": "LineString", "coordinates": [ [ 110.985311995989889, 35.013429460705396 ], [ 110.986775833535731, 35.0103831972093 ] ] } },
{ "type": "Feature", "properties": { "编号": 54, "道路名称": "西城墙路", "道路长度": null, "road_type": 3 }, "geometry": { "type": "LineString", "coordinates": [ [ 110.990002250983736, 35.015056534881872 ], [ 110.990704295521041, 35.013582382588901 ], [ 110.991316717351438, 35.012420169103173 ], [ 110.992242818655981, 35.01062788119868 ], [ 110.99284030336861, 35.009612437858522 ], [ 110.993497536552468, 35.008499105974408 ] ] } },
{ "type": "Feature", "properties": { "编号": 55, "道路名称": "南城墙路", "道路长度": null, "road_type": 2 }, "geometry": { "type": "LineString", "coordinates": [ [ 110.993493802272994, 35.008538868088344 ], [ 110.995413221912173, 35.009309637555077 ], [ 110.997269158800663, 35.010043696961681 ], [ 110.998852493289078, 35.010725754589487 ], [ 111.000465702013102, 35.011502620474893 ], [ 111.001365663361454, 35.011955279084617 ], [ 111.002881780819664, 35.012579209818682 ], [ 111.005017788667132, 35.013438636026478 ], [ 111.007601910049132, 35.014441798255227 ], [ 111.00958854671849, 35.015191103477186 ], [ 111.010861936012233, 35.015704908804359 ] ] } },
{ "type": "Feature", "properties": { "编号": 70, "道路名称": "老西街", "道路长度": null, "road_type": 3 }, "geometry": { "type": "LineString", "coordinates": [ [ 110.991413808617196, 35.012255011109723 ], [ 110.993691719083955, 35.013132791435972 ], [ 110.995458033265564, 35.013750596330496 ], [ 110.996895730855229, 35.014157366312126 ], [ 110.997082444827925, 35.014539667082161 ], [ 110.999830874505861, 35.015252270947308 ] ] } },
{ "type": "Feature", "properties": { "编号": 40, "道路名称": "老东街", "道路长度": null, "road_type": 2 }, "geometry": { "type": "LineString", "coordinates": [ [ 110.999849545903174, 35.015258387691794 ], [ 111.002717472523614, 35.015931226793384 ], [ 111.003606231033615, 35.016154485817538 ], [ 111.004707843472474, 35.016536777251709 ], [ 111.005604070541352, 35.016839550799354 ], [ 111.005880407220957, 35.01690377534716 ], [ 111.006082058311463, 35.01692824182831 ], [ 111.00656378036102, 35.017044457513755 ], [ 111.007381587561383, 35.017344170887654 ], [ 111.008147114849393, 35.017656116293836 ], [ 111.008815550871589, 35.017897720251447 ], [ 111.0095250639678, 35.018176022659709 ], [ 111.010436228154518, 35.018497139646094 ], [ 111.01080965609988, 35.018659226788898 ], [ 111.01157518338789, 35.018983400110614 ], [ 111.012471410456797, 35.019353445444743 ], [ 111.013412448879123, 35.019717372693734 ], [ 111.014469249964492, 35.020163869458727 ], [ 111.01573517069933, 35.020717399734501 ], [ 111.016366263926997, 35.021032390428438 ], [ 111.017228882480822, 35.021576740417501 ], [ 111.018065361078428, 35.022078273154698 ], [ 111.019327547533834, 35.022916192937188 ], [ 111.020559859753547, 35.02376633634865 ], [ 111.021639066515689, 35.024475801781008 ] ] } },
{ "type": "Feature", "properties": { "编号": 61, "道路名称": "双桥路", "道路长度": null, "road_type": 2 }, "geometry": { "type": "LineString", "coordinates": [ [ 110.983407513468421, 35.012891173400831 ], [ 110.984662231364837, 35.015778309301851 ], [ 110.98627544008886, 35.018151556551892 ], [ 110.987201541393404, 35.019350387225707 ], [ 110.990846198140233, 35.020426873261442 ], [ 110.993325759697512, 35.021136367672625 ], [ 110.99368425052505, 35.021650135644357 ] ] } },
{ "type": "Feature", "properties": { "编号": 62, "道路名称": "八一西街", "道路长度": null, "road_type": 3 }, "geometry": { "type": "LineString", "coordinates": [ [ 110.992324972803857, 35.023689884964767 ], [ 110.99108519202521, 35.023751046077585 ], [ 110.990024656660367, 35.022870321638436 ], [ 110.989218052298369, 35.022038517623152 ], [ 110.988784875881748, 35.021634844977534 ], [ 110.988486133525413, 35.021488054430435 ], [ 110.98811270558005, 35.021402426489594 ], [ 110.987769151870296, 35.021390193919309 ], [ 110.987485346631843, 35.021439124189513 ], [ 110.987141792922102, 35.021683775101337 ] ] } },
{ "type": "Feature", "properties": { "编号": 60, "道路名称": "凤凰路", "道路长度": null, "road_type": 2 }, "geometry": { "type": "LineString", "coordinates": [ [ 110.991533305559699, 35.025353450930233 ], [ 110.993669313407224, 35.021708240152257 ], [ 110.995641012958785, 35.01704751581903 ] ] } },
{ "type": "Feature", "properties": { "编号": 45, "道路名称": "明珠巷", "道路长度": null, "road_type": 3 }, "geometry": { "type": "LineString", "coordinates": [ [ 110.966935606798046, 35.019439075531409 ], [ 110.969967841714464, 35.020381000566076 ], [ 110.972902985365081, 35.021451356752507 ], [ 110.974695439502895, 35.022105796203675 ] ] } },
{ "type": "Feature", "properties": { "编号": 17, "道路名称": "军营路", "道路长度": null, "road_type": 3 }, "geometry": { "type": "LineString", "coordinates": [ [ 110.975494575305945, 35.020509444048272 ], [ 110.97150636484939, 35.018038400708086 ] ] } },
{ "type": "Feature", "properties": { "编号": 18, "道路名称": "海光街", "道路长度": null, "road_type": 3 }, "geometry": { "type": "LineString", "coordinates": [ [ 110.975584198012854, 35.020533909450599 ], [ 110.98157398225662, 35.024289261897565 ] ] } },
{ "type": "Feature", "properties": { "编号": 16, "道路名称": "货场西路", "道路长度": null, "road_type": 2 }, "geometry": { "type": "LineString", "coordinates": [ [ 110.981349925489411, 35.019714314488311 ], [ 110.982694266092736, 35.02017916040068 ], [ 110.982903385742148, 35.020387116926962 ], [ 110.983142379627182, 35.022466653099727 ], [ 110.981588919374445, 35.02431372616882 ], [ 110.978750866989643, 35.027689725387901 ], [ 110.977526023328807, 35.029120813412753 ], [ 110.975763443426658, 35.031200127430544 ] ] } },
{ "type": "Feature", "properties": { "编号": 72, "道路名称": "阜财路", "道路长度": null, "road_type": 3 }, "geometry": { "type": "LineString", "coordinates": [ [ 110.977929325509805, 35.031860604342661 ], [ 110.982335775265184, 35.026442089744251 ], [ 110.983441121983475, 35.025145507035845 ] ] } },
{ "type": "Feature", "properties": { "编号": 76, "道路名称": "卧云街", "道路长度": null, "road_type": 3 }, "geometry": { "type": "LineString", "coordinates": [ [ 110.982380586618646, 35.026442089744251 ], [ 110.985024456471876, 35.02767749375834 ] ] } },
{ "type": "Feature", "properties": { "编号": 73, "道路名称": "货场东路", "道路长度": null, "road_type": 2 }, "geometry": { "type": "LineString", "coordinates": [ [ 110.980125081828589, 35.032447690450432 ], [ 110.983590493161643, 35.029108581997342 ], [ 110.985651815420084, 35.026943592634872 ], [ 110.986099928954545, 35.026491016990967 ] ] } },
{ "type": "Feature", "properties": { "编号": 15, "道路名称": "棉科西路", "道路长度": null, "road_type": 3 }, "geometry": { "type": "LineString", "coordinates": [ [ 110.980498509773994, 35.042592606062705 ], [ 110.982664391857156, 35.039156072885007 ], [ 110.983948983989222, 35.03704027060639 ], [ 110.985831060833874, 35.034190577488545 ] ] } },
{ "type": "Feature", "properties": { "编号": 75, "道路名称": "兴源街", "道路长度": null, "road_type": 3 }, "geometry": { "type": "LineString", "coordinates": [ [ 110.98227602679394, 35.039792025867008 ], [ 110.987085778730375, 35.041369657085944 ] ] } },
{ "type": "Feature", "properties": { "编号": 6, "道路名称": "棉西路", "道路长度": null, "road_type": 3 }, "geometry": { "type": "LineString", "coordinates": [ [ 110.973201727721403, 35.060103227228971 ], [ 110.975800786221171, 35.054845544066836 ] ] } },
{ "type": "Feature", "properties": { "编号": 13, "道路名称": "大禹街", "道路长度": null, "road_type": 1 }, "geometry": { "type": "LineString", "coordinates": [ [ 110.994158504015758, 35.077610093624948 ], [ 111.000372345026776, 35.079590382563907 ] ] } },
{ "type": "Feature", "properties": { "编号": 65, "道路名称": "子文路", "道路长度": null, "road_type": 3 }, "geometry": { "type": "LineString", "coordinates": [ [ 110.99735504722814, 35.078612468107423 ], [ 111.000820458561222, 35.071742288658811 ], [ 111.002015427986379, 35.06895493348955 ], [ 111.003449391296627, 35.066485355080573 ], [ 111.004524863779281, 35.064235773084853 ], [ 111.006616060273387, 35.060323308908977 ] ] } },
{ "type": "Feature", "properties": { "编号": 69, "道路名称": "后稷街", "道路长度": null, "road_type": 2 }, "geometry": { "type": "LineString", "coordinates": [ [ 110.998191525825789, 35.069566203737217 ], [ 111.004554738014946, 35.071791188776992 ] ] } },
{ "type": "Feature", "properties": { "编号": 68, "道路名称": "勤学街", "道路长度": null, "road_type": 3 }, "geometry": { "type": "LineString", "coordinates": [ [ 110.996458820159262, 35.072964782822616 ], [ 111.002732409641496, 35.074945184503271 ] ] } },
{ "type": "Feature", "properties": { "编号": 38, "道路名称": "舜帝街", "道路长度": null, "road_type": 1 }, "geometry": { "type": "LineString", "coordinates": [ [ 110.998370771239564, 35.083257457379709 ], [ 111.010350339727111, 35.092204428108033 ] ] } },
{ "type": "Feature", "properties": { "编号": 66, "道路名称": "迎太路", "道路长度": null, "road_type": 2 }, "geometry": { "type": "LineString", "coordinates": [ [ 111.020761510844082, 35.05614165554352 ], [ 111.016369998206528, 35.059210667667131 ] ] } },
{ "type": "Feature", "properties": { "编号": 64, "道路名称": "永乐街", "道路长度": null, "road_type": 1 }, "geometry": { "type": "LineString", "coordinates": [ [ 111.006720620098037, 35.052516159941 ], [ 111.013531945821626, 35.054753837286839 ] ] } },
{ "type": "Feature", "properties": { "编号": 67, "道路名称": "塔北街", "道路长度": null, "road_type": 3 }, "geometry": { "type": "LineString", "coordinates": [ [ 111.013502071586032, 35.05499838847129 ], [ 111.016534306502464, 35.056111087113486 ], [ 111.018281949286802, 35.057847355804206 ] ] } },
{ "type": "Feature", "properties": { "编号": 2, "道路名称": "桑梓街", "道路长度": null, "road_type": 3 }, "geometry": { "type": "LineString", "coordinates": [ [ 110.990431693120939, 35.057211543385044 ], [ 110.993755201834773, 35.058379233543981 ], [ 110.996906933693708, 35.059351277012752 ] ] } },
{ "type": "Feature", "properties": { "编号": 74, "道路名称": "岳南街", "道路长度": null, "road_type": 3 }, "geometry": { "type": "LineString", "coordinates": [ [ 110.991671473899558, 35.055126777549972 ], [ 110.994561806196771, 35.056092746049991 ] ] } },
{ "type": "Feature", "properties": { "编号": 63, "道路名称": "潞村街", "道路长度": null, "road_type": 2 }, "geometry": { "type": "LineString", "coordinates": [ [ 110.991544508398206, 35.025390146856743 ], [ 110.99227642717112, 35.026319771499352 ], [ 110.994083818426731, 35.02705367822346 ], [ 110.995353473440986, 35.027677493758354 ], [ 110.997205676050044, 35.028081136567685 ], [ 110.999147501365982, 35.028484777383838 ], [ 111.001417943273864, 35.029206433269486 ], [ 111.003120774704769, 35.029671225212383 ] ] } },
{ "type": "Feature", "properties": { "编号": 22, "道路名称": "阜巷", "道路长度": null, "road_type": 3 }, "geometry": { "type": "LineString", "coordinates": [ [ 110.999446243722275, 35.023604259329986 ], [ 111.00096982973939, 35.020387116926983 ], [ 111.001642000041059, 35.019176068551452 ] ] } },
{ "type": "Feature", "properties": { "编号": 41, "道路名称": "东城墙路", "道路长度": null, "road_type": 3 }, "geometry": { "type": "LineString", "coordinates": [ [ 111.001686811394507, 35.024313726168849 ], [ 111.003165586058216, 35.021818332790843 ], [ 111.004211184305248, 35.020056832785244 ], [ 111.004958040195987, 35.01850325614793 ], [ 111.005943889971789, 35.016925183518616 ], [ 111.007049236690065, 35.014796572195685 ], [ 111.007213544986058, 35.014331695684952 ] ] } },
{ "type": "Feature", "properties": { "编号": 71, "道路名称": "银湖东街", "道路长度": null, "road_type": 2 }, "geometry": { "type": "LineString", "coordinates": [ [ 111.003210397411678, 35.009181176481675 ], [ 111.01118681832483, 35.013438636026507 ], [ 111.012441536221289, 35.014172658377277 ] ] } },
{ "type": "Feature", "properties": { "编号": 10, "道路名称": "高家垣中巷", "道路长度": null, "road_type": 3 }, "geometry": { "type": "LineString", "coordinates": [ [ 111.004868417489106, 35.027604103942515 ], [ 111.006765431451598, 35.029071887740109 ], [ 111.008453325764677, 35.030343945711806 ], [ 111.010320465491532, 35.031689370100203 ] ] } },
{ "type": "Feature", "properties": { "编号": 22, "道路名称": "槐中路", "道路长度": null, "road_type": 3 }, "geometry": { "type": "LineString", "coordinates": [ [ 111.016183284233904, 35.028943457710021 ], [ 111.017408127894726, 35.026546060108558 ], [ 111.018274480727968, 35.024882518411914 ] ] } },
{ "type": "Feature", "properties": { "编号": 19, "道路名称": "东湖巷", "道路长度": null, "road_type": 3 }, "geometry": { "type": "LineString", "coordinates": [ [ 111.031732823879253, 35.030655841519291 ], [ 111.033756803343167, 35.027377818262217 ] ] } },
{ "type": "Feature", "properties": { "编号": 25, "道路名称": "铺安街", "道路长度": null, "road_type": 2 }, "geometry": { "type": "LineString", "coordinates": [ [ 111.0217697662967, 35.040727601545001 ], [ 111.025907347931422, 35.042672097112579 ], [ 111.028028418661165, 35.043656556781244 ], [ 111.029805935681154, 35.044518713579215 ], [ 111.033353501162196, 35.046169626734674 ], [ 111.037237151794031, 35.048016164140847 ], [ 111.04009014129673, 35.049416325273903 ], [ 111.040986368365623, 35.049740376613592 ] ] } },
{ "type": "Feature", "properties": { "编号": 25, "道路名称": "铺安街", "道路长度": null, "road_type": 2 }, "geometry": { "type": "LineString", "coordinates": [ [ 111.040986368365623, 35.049764833266295 ], [ 111.040754843039494, 35.050260078907939 ], [ 111.040291792387237, 35.051317815715969 ], [ 111.040396352211914, 35.052192119614674 ], [ 111.040724968803858, 35.052791287510729 ], [ 111.041367264869905, 35.053243717498937 ], [ 111.041987155259221, 35.053421020459361 ], [ 111.04298794215282, 35.053469931553117 ], [ 111.044369625550672, 35.05349438708901 ], [ 111.045295726855215, 35.053567753652743 ], [ 111.045885743008895, 35.053714486582464 ], [ 111.046714753047652, 35.054118000779795 ], [ 111.047872379678296, 35.054692699376311 ] ] } },
{ "type": "Feature", "properties": { "编号": 34, "道路名称": "韩信路", "道路长度": null, "road_type": 2 }, "geometry": { "type": "LineString", "coordinates": [ [ 111.041016242601202, 35.049764833266295 ], [ 111.041636132990519, 35.049844317337019 ], [ 111.042248554820929, 35.049825974866039 ], [ 111.042868445210246, 35.04971591995357 ], [ 111.043488335599591, 35.049459124581148 ], [ 111.043831889309331, 35.04922678521514 ], [ 111.044190380136868, 35.048872160698075 ], [ 111.044571276641179, 35.048291306869693 ], [ 111.044996984498908, 35.047661534367641 ], [ 111.045848400214311, 35.046414203623833 ], [ 111.046550444751617, 35.045301372864117 ], [ 111.047446671820509, 35.044011203941594 ], [ 111.048529612862112, 35.042409164883239 ] ] } },
{ "type": "Feature", "properties": { "编号": 31, "道路名称": "形意路", "道路长度": null, "road_type": 3 }, "geometry": { "type": "LineString", "coordinates": [ [ 111.039567342173171, 35.049141186334758 ], [ 111.040971431247755, 35.047001185170032 ], [ 111.041568915960369, 35.046163512303075 ], [ 111.042831102415718, 35.044445338886824 ] ] } },
{ "type": "Feature", "properties": { "编号": 29, "道路名称": "魏风街", "道路长度": null, "road_type": 2 }, "geometry": { "type": "LineString", "coordinates": [ [ 111.042831102415704, 35.044445338886824 ], [ 111.046109799776076, 35.04598007914192 ] ] } },
{ "type": "Feature", "properties": { "编号": 29, "道路名称": "魏风街", "道路长度": null, "road_type": 2 }, "geometry": { "type": "LineString", "coordinates": [ [ 111.030567728689633, 35.038697449874171 ], [ 111.034204916877584, 35.040470777915864 ], [ 111.036647135640337, 35.041553100599494 ] ] } },
{ "type": "Feature", "properties": { "编号": 28, "道路名称": "周西路", "道路长度": null, "road_type": 2 }, "geometry": { "type": "LineString", "coordinates": [ [ 111.036632198522497, 35.041534756266664 ], [ 111.037685265328477, 35.039975472922741 ], [ 111.039059480167424, 35.037981992837075 ], [ 111.041120802425908, 35.034875491344032 ] ] } },
{ "type": "Feature", "properties": { "编号": 34, "道路名称": "韩信路", "道路长度": null, "road_type": 2 }, "geometry": { "type": "LineString", "coordinates": [ [ 111.048566955656639, 35.042384706028187 ], [ 111.05071790062199, 35.0392172224253 ] ] } },
{ "type": "Feature", "properties": { "编号": 33, "道路名称": "太乙街", "道路长度": null, "road_type": 3 }, "geometry": { "type": "LineString", "coordinates": [ [ 111.037677796769586, 35.040012162284476 ], [ 111.040724968803815, 35.041589789252782 ] ] } },
{ "type": "Feature", "properties": { "编号": 30, "道路名称": "晨光路", "道路长度": null, "road_type": 3 }, "geometry": { "type": "LineString", "coordinates": [ [ 111.040724968803815, 35.041540871044745 ], [ 111.04220374346751, 35.039486279858878 ] ] } },
{ "type": "Feature", "properties": { "编号": 30, "道路名称": "晨光路", "道路长度": null, "road_type": 3 }, "geometry": { "type": "LineString", "coordinates": [ [ 111.042293366174377, 35.039388440894633 ], [ 111.044429374021917, 35.036392065881799 ] ] } },
{ "type": "Feature", "properties": { "编号": 31, "道路名称": "形意路", "道路长度": null, "road_type": 3 }, "geometry": { "type": "LineString", "coordinates": [ [ 111.042427800234719, 35.044219099837044 ], [ 111.044832676202915, 35.040672567978156 ] ] } },
{ "type": "Feature", "properties": { "编号": 32, "道路名称": "形意东街", "道路长度": null, "road_type": 3 }, "geometry": { "type": "LineString", "coordinates": [ [ 111.041322453516443, 35.046530377389637 ], [ 111.04469824214263, 35.048083421337935 ] ] } },
{ "type": "Feature", "properties": { "编号": 50, "道路名称": "步青路", "道路长度": null, "road_type": 3 }, "geometry": { "type": "LineString", "coordinates": [ [ 111.024742252741888, 35.042066740246156 ], [ 111.02741599683074, 35.037150342596121 ], [ 111.029327947911071, 35.033505657892846 ], [ 111.031195087637926, 35.030398986234914 ] ] } },
{ "type": "Feature", "properties": { "编号": 29, "道路名称": "魏风街", "道路长度": null, "road_type": 2 }, "geometry": { "type": "LineString", "coordinates": [ [ 111.02436135623752, 35.035817238522476 ], [ 111.027423465389589, 35.037235954041144 ], [ 111.030560260130741, 35.038691334883296 ] ] } },
{ "type": "Feature", "properties": { "编号": 27, "道路名称": "槐豫东路", "道路长度": null, "road_type": 3 }, "geometry": { "type": "LineString", "coordinates": [ [ 111.017191539686365, 35.03304088775517 ], [ 111.021836983326793, 35.034673686965263 ], [ 111.021949011710433, 35.034893837171943 ], [ 111.022494216510665, 35.035193485111385 ], [ 111.023801214319505, 35.035725510378256 ], [ 111.024301607766276, 35.035805008109172 ] ] } },
{ "type": "Feature", "properties": { "编号": 57, "道路名称": "光华路", "道路长度": null, "road_type": 2 }, "geometry": { "type": "LineString", "coordinates": [ [ 111.064385363422659, 35.054417578212423 ], [ 111.073198262933474, 35.059601927854324 ] ] } },
{ "type": "Feature", "properties": { "编号": 58, "道路名称": "辛卓路", "道路长度": null, "road_type": 3 }, "geometry": { "type": "LineString", "coordinates": [ [ 111.070569330198026, 35.061753825368349 ], [ 111.075737572961984, 35.057474427966383 ] ] } },
{ "type": "Feature", "properties": { "编号": 59, "道路名称": "芦子沟新村支路", "道路长度": null, "road_type": 3 }, "geometry": { "type": "LineString", "coordinates": [ [ 111.069135366887792, 35.059186213843212 ], [ 111.07182404809447, 35.060800150513828 ] ] } },
{ "type": "Feature", "properties": { "编号": 4, "道路名称": "书院西路", "道路长度": null, "road_type": 1 }, "geometry": { "type": "LineString", "coordinates": [ [ 110.947593930831871, 35.044748317642103 ], [ 110.949863877509273, 35.039878439426779 ] ] } },
{ "type": "Feature", "properties": { "编号": 3, "道路名称": "书院东路", "道路长度": null, "road_type": 1 }, "geometry": { "type": "LineString", "coordinates": [ [ 110.955701633894876, 35.045135486315125 ], [ 110.956931188345109, 35.04214133413636 ], [ 110.958423468105295, 35.038781386164665 ] ] } },
{ "type": "Feature", "properties": { "编号": 1, "道路名称": "条山街", "道路长度": null, "road_type": 1 }, "geometry": { "type": "LineString", "coordinates": [ [ 110.949890150040318, 35.039884892637701 ], [ 110.956920679332796, 35.042160693231367 ], [ 110.96215416750573, 35.043877181418686 ], [ 110.964345296590125, 35.044561185459031 ], [ 110.980119324195513, 35.048471513687176 ], [ 110.983366609025722, 35.049263020492866 ], [ 110.993329152776425, 35.052265514616131 ], [ 110.999508452064916, 35.054089325350773 ], [ 111.011951122740996, 35.057891667687883 ] ] } },
{ "type": "Feature", "properties": { "编号": 44, "道路名称": "圣惠路", "道路长度": null, "road_type": 1 }, "geometry": { "type": "LineString", "coordinates": [ [ 110.952921140546621, 35.067354909590456 ], [ 110.958016595309957, 35.061029385613942 ], [ 110.958398754417217, 35.060308175242788 ], [ 110.958536756317059, 35.060004048477772 ], [ 110.958727835870675, 35.059361033873444 ], [ 110.95941784536997, 35.056423956830585 ], [ 110.959906159784822, 35.054677301749784 ], [ 110.961838186382678, 35.050240977497928 ], [ 110.96434345164127, 35.044557263858906 ], [ 110.970680923503267, 35.030215861908957 ], [ 110.974141586530124, 35.023196349430933 ], [ 110.976163845139354, 35.019188654691376 ], [ 110.976609697431201, 35.01823234275308 ], [ 110.979624508166197, 35.011346566649848 ], [ 110.980919602918533, 35.008277340770746 ], [ 110.981174375656678, 35.007536101109146 ], [ 110.981246030489316, 35.007164391888097 ], [ 110.981309723673846, 35.006790507225098 ], [ 110.98133095473537, 35.006086208218683 ], [ 110.981203568366354, 35.004281957793395 ], [ 110.980908987387892, 35.000182031185787 ], [ 110.980802832080386, 34.998216776137355 ], [ 110.980654214649789, 34.997464575321764 ], [ 110.980452519565404, 34.996903681196329 ], [ 110.980165900234937, 34.996299302603234 ], [ 110.979831511016087, 34.99569491954675 ], [ 110.97911496269009, 34.994847036512972 ], [ 110.978483338610033, 34.994260035420787 ], [ 110.976673390615957, 34.992999055875913 ], [ 110.972692566582097, 34.990233529265161 ] ] } },
{ "type": "Feature", "properties": { "编号": 5, "道路名称": "涑水街", "道路长度": null, "road_type": 1 }, "geometry": { "type": "LineString", "coordinates": [ [ 110.9618594174446, 35.050223596713572 ], [ 110.965118385387001, 35.051283817793035 ], [ 110.96913105601314, 35.052617764926708 ], [ 110.971758399875512, 35.05347591158192 ], [ 110.973998276865217, 35.054212389748706 ], [ 110.979974820681477, 35.056171954175042 ], [ 110.989422643055192, 35.059248071325428 ], [ 110.995983041063013, 35.061437779022967 ], [ 111.001248344318498, 35.063175600473464 ], [ 111.007936128695363, 35.065382580391365 ], [ 111.019655674651148, 35.073827637501736 ], [ 111.021120617895662, 35.074878864312971 ], [ 111.02468743623001, 35.07807590064516 ], [ 111.026063756215535, 35.079323994626264 ] ] } },
{ "type": "Feature", "properties": { "编号": 14, "道路名称": "机场大道", "道路长度": null, "road_type": 1 }, "geometry": { "type": "LineString", "coordinates": [ [ 110.970903849649673, 35.029772542111552 ], [ 110.976137306312864, 35.031306766073818 ], [ 110.98037821085029, 35.032558462874512 ], [ 110.990128575850619, 35.035444246338216 ], [ 110.999852402024032, 35.03832992789868 ], [ 111.00320690974327, 35.039329462507602 ], [ 111.003557222258266, 35.039538059492543 ], [ 111.00400307455007, 35.039920485915104 ], [ 111.006752497016095, 35.042527891088326 ], [ 111.014926455699026, 35.050419130324777 ], [ 111.024331815949736, 35.059473996265226 ], [ 111.024926285672123, 35.060264728631466 ], [ 111.025382753494682, 35.061272684061088 ], [ 111.027696939199743, 35.066121123338277 ], [ 111.02865233696788, 35.068015238232782 ], [ 111.029395424120878, 35.069231619115776 ], [ 111.030255282112165, 35.070430605387479 ], [ 111.031019600326687, 35.07136893018307 ], [ 111.031953767033272, 35.072394124571154 ], [ 111.034947346706758, 35.075400128783585 ], [ 111.039023710517441, 35.079396379095925 ], [ 111.043981163380934, 35.084313235891209 ], [ 111.045700879363594, 35.086033197098466 ], [ 111.046677508193241, 35.086762866653785 ] ] } },
{ "type": "Feature", "properties": { "编号": 46, "道路名称": "河东街", "道路长度": null, "road_type": 1 }, "geometry": { "type": "LineString", "coordinates": [ [ 110.976615005197047, 35.018284505510891 ], [ 110.993663547592774, 35.021744560796286 ], [ 111.005892639024864, 35.025708665261462 ], [ 111.018843586548414, 35.029811658661046 ], [ 111.026253227016838, 35.032089078820761 ], [ 111.032643776532581, 35.034957494826223 ], [ 111.039140481355872, 35.038017027595174 ], [ 111.048524610545087, 35.042414905255669 ], [ 111.049883398481967, 35.043118891359221 ], [ 111.050605254573455, 35.043762033854946 ], [ 111.051029875803721, 35.044370407231405 ], [ 111.051475728095511, 35.04516997677883 ], [ 111.051645576587632, 35.045587140392485 ], [ 111.051942811448811, 35.045865248284734 ], [ 111.05243112586362, 35.046273717534895 ], [ 111.05364129636996, 35.047216665344166 ], [ 111.054235766092305, 35.047677271837536 ], [ 111.05468161838408, 35.048302997252463 ], [ 111.055000084306783, 35.049215504890164 ], [ 111.055923635482614, 35.051753091581666 ], [ 111.056369487774447, 35.052370095607714 ], [ 111.057123190458213, 35.053030545456096 ], [ 111.058545671579651, 35.053951690272179 ], [ 111.061900179298817, 35.056072021872204 ], [ 111.067993493953367, 35.060173490672412 ], [ 111.074001884361806, 35.064205242230315 ], [ 111.07495728212993, 35.064969862304793 ], [ 111.075986988613394, 35.066055958052985 ], [ 111.077059157219821, 35.0671594165334 ], [ 111.078184403480094, 35.068419252465297 ] ] } },
{ "type": "Feature", "properties": { "编号": 20, "道路名称": "红旗街", "道路长度": null, "road_type": 1 }, "geometry": { "type": "LineString", "coordinates": [ [ 110.97964522691926, 35.011442979457549 ], [ 110.993312689719914, 35.016238590086189 ], [ 110.998570555190767, 35.018079687317673 ], [ 110.999056011519741, 35.018318231766187 ], [ 111.004717179171593, 35.020226562302241 ], [ 111.015531652469633, 35.023920767925844 ], [ 111.02156624806679, 35.026000214220609 ], [ 111.028078831434129, 35.029033664537728 ], [ 111.044927900329384, 35.036616797818873 ], [ 111.058012815535264, 35.042560503885845 ], [ 111.075608740321272, 35.050558141966739 ], [ 111.092457809216484, 35.058188185903845 ], [ 111.097476680802231, 35.060486841439655 ], [ 111.099179512233178, 35.061538332505094 ], [ 111.100792720957159, 35.062858790474706 ] ] } },
{ "type": "Feature", "properties": { "编号": 47, "道路名称": "滨湖大道", "道路长度": null, "road_type": 1 }, "geometry": { "type": "LineString", "coordinates": [ [ 110.985679822516317, 34.990789280643746 ], [ 110.98936929061658, 34.993383514852638 ], [ 110.990765911132272, 34.99426455682277 ], [ 110.9922894971494, 34.995225126496941 ], [ 110.994559939057254, 34.996583365011077 ], [ 111.000221106709091, 35.000144045452956 ], [ 111.003686518042159, 35.002860336656319 ], [ 111.005688091829356, 35.004450915767677 ], [ 111.006883061254555, 35.005282898677315 ], [ 111.009392497047443, 35.00656756155125 ], [ 111.011319385245599, 35.007754327422575 ], [ 111.013261210561538, 35.009295873878052 ], [ 111.016487628009571, 35.011816117413652 ], [ 111.019923165106974, 35.01418947964536 ], [ 111.024852413985883, 35.018091920383256 ], [ 111.026585119652424, 35.019559874965253 ], [ 111.028078831433916, 35.020734219656418 ], [ 111.030229776399267, 35.022006407371848 ], [ 111.036652737059583, 35.025529285428028 ], [ 111.042179470651121, 35.028464901177948 ], [ 111.044823340504308, 35.029920438224615 ], [ 111.048527745722438, 35.031706187764684 ], [ 111.053277749187586, 35.033491898288332 ], [ 111.058535614658439, 35.035204186802964 ], [ 111.060626811152545, 35.035938013755072 ], [ 111.066691280985424, 35.03835959594263 ], [ 111.075847734205894, 35.040389756007954 ] ] } },
{ "type": "Feature", "properties": { "编号": 2, "道路名称": "解放路", "道路长度": null, "road_type": 1 }, "geometry": { "type": "LineString", "coordinates": [ [ 110.967882246639462, 35.080456743860253 ], [ 110.970899544438097, 35.074491346696384 ], [ 110.979921563598239, 35.056030080718379 ], [ 110.99001905524112, 35.035314261265839 ], [ 110.998622835102537, 35.017994055807414 ], [ 111.000355540769121, 35.01407937673531 ], [ 111.001281642073636, 35.012121966927729 ], [ 111.00211812067127, 35.010458131758512 ], [ 111.00256623420573, 35.009577264143147 ], [ 111.003044221975813, 35.009087889146812 ], [ 111.003701455159671, 35.008647449146871 ], [ 111.004627556464172, 35.008378290201691 ], [ 111.005643280475567, 35.008109130370848 ], [ 111.006539507544474, 35.007644215849766 ], [ 111.007166866492682, 35.007203768076685 ], [ 111.007510420202379, 35.006769435311526 ], [ 111.008145247709521, 35.00591299775045 ] ] } },
{ "type": "Feature", "properties": { "编号": 42, "道路名称": "人民路", "道路长度": null, "road_type": 1 }, "geometry": { "type": "LineString", "coordinates": [ [ 110.977210476714703, 35.084056552225391 ], [ 110.979271798973159, 35.079851667098382 ], [ 110.983469129079168, 35.071221194954788 ], [ 110.987681396302975, 35.062491998736647 ], [ 110.989354353498214, 35.059190798935617 ], [ 110.989384227733865, 35.05894626030701 ], [ 110.992670393653142, 35.053297214122232 ], [ 110.993297752601393, 35.052245616926811 ], [ 110.993566620722063, 35.052001057498778 ], [ 110.996016308043707, 35.046327073190845 ], [ 110.996845318082379, 35.044743423164547 ], [ 110.99901120016554, 35.040028978236215 ], [ 110.999772993174062, 35.038267870652312 ], [ 111.001296579191177, 35.034770002753419 ], [ 111.003596895334695, 35.029828703461753 ], [ 111.00521010405869, 35.026526183431216 ], [ 111.005688091828773, 35.025596561135892 ], [ 111.007241552081553, 35.022611912841064 ], [ 111.007928659501047, 35.021266339041738 ], [ 111.009243125868764, 35.018672988889747 ], [ 111.010408221058327, 35.016507723165198 ], [ 111.010875005990044, 35.015709496337081 ] ] } },
{ "type": "Feature", "properties": { "编号": 9, "道路名称": "中银路", "道路长度": null, "road_type": 1 }, "geometry": { "type": "LineString", "coordinates": [ [ 110.988372238001787, 35.07574130465914 ], [ 110.990935820846857, 35.071054627643832 ], [ 110.993564753582305, 35.066274459401996 ], [ 110.994886688508899, 35.063413559847255 ], [ 110.995902412520309, 35.061402311894454 ], [ 110.997971203337727, 35.057080100776865 ], [ 111.000219239568864, 35.052464191295904 ], [ 111.002176002002642, 35.048233221259565 ], [ 111.005551790628843, 35.041311566554022 ], [ 111.007374119002279, 35.037618146898048 ], [ 111.008987327726331, 35.034291480336634 ], [ 111.012303367881259, 35.027637740949515 ], [ 111.014349753021861, 35.023491111032023 ], [ 111.015761310655378, 35.020665410862485 ] ] } },
{ "type": "Feature", "properties": { "编号": 26, "道路名称": "学苑路", "道路长度": null, "road_type": 1 }, "geometry": { "type": "LineString", "coordinates": [ [ 110.984684637041454, 35.094945158193966 ], [ 110.99264612083681, 35.090410834697124 ], [ 110.994782128684335, 35.088956375642205 ], [ 110.995514047457249, 35.088223025105947 ], [ 110.99629077758361, 35.086841863692264 ], [ 110.998232602899549, 35.083284959817945 ], [ 110.999771126034503, 35.080559117515037 ], [ 111.002444870123355, 35.075620588282867 ], [ 111.005731036042619, 35.069532583992476 ], [ 111.00797160371485, 35.065339176348331 ], [ 111.010720033392857, 35.060216324832972 ], [ 111.011616260461764, 35.058590149619235 ], [ 111.013334029010409, 35.055117606908077 ], [ 111.016754628990043, 35.049419382367901 ], [ 111.019876486613327, 35.044271073728105 ], [ 111.020459034208102, 35.043121525824176 ], [ 111.023087966943592, 35.038205191644792 ], [ 111.02625463592031, 35.032163321143528 ], [ 111.028047090058109, 35.02892205268526 ], [ 111.029660298782133, 35.026243322503234 ], [ 111.030690959911325, 35.02459200673907 ], [ 111.030522917335958, 35.024530846255381 ], [ 111.030328734804357, 35.024350422561895 ], [ 111.030074803801497, 35.024084373338248 ], [ 111.029959041138412, 35.023962051565562 ], [ 111.029906761226073, 35.02376022024049 ], [ 111.029914229785007, 35.023592027088995 ], [ 111.029988915374048, 35.023454414253123 ], [ 111.030119615154945, 35.02335043995685 ], [ 111.03030259484818, 35.023277046256325 ], [ 111.030511714497592, 35.023261755893756 ], [ 111.030776848338775, 35.023286220472485 ], [ 111.031097996371798, 35.023362672233858 ], [ 111.031273507506114, 35.023344323817639 ], [ 111.031452752919918, 35.023313743114819 ], [ 111.031635732613168, 35.023099677874725 ], [ 111.031833649424229, 35.022916192937124 ] ] } },
{ "type": "Feature", "properties": { "编号": 26, "道路名称": "学苑路", "道路长度": null, "road_type": 1 }, "geometry": { "type": "LineString", "coordinates": [ [ 111.031482627155569, 35.02335043995685 ], [ 111.031639466892628, 35.023699059134543 ], [ 111.031878460777676, 35.023925354998084 ], [ 111.032102517544885, 35.024237275296748 ], [ 111.032080111868154, 35.024543078355798 ], [ 111.031900866454365, 35.024763255850011 ], [ 111.03157224986245, 35.024842764243878 ], [ 111.031325787418524, 35.024848880270966 ], [ 111.031131604886923, 35.024818300130917 ], [ 111.030877673884063, 35.024744907748151 ], [ 111.030690959911382, 35.02462258696378 ] ] } },
{ "type": "Feature", "properties": { "编号": 24, "道路名称": "槐东路", "道路长度": null, "road_type": 1 }, "geometry": { "type": "LineString", "coordinates": [ [ 110.992750680661516, 35.080779144039745 ], [ 110.994782128684335, 35.076085116144469 ], [ 110.997261690241615, 35.071134090990526 ], [ 110.998053357485759, 35.06945923177426 ], [ 110.999494789354998, 35.066525088987873 ], [ 111.001152809432455, 35.063114015420147 ], [ 111.003169320337435, 35.059128135981837 ] ] } },
{ "type": "Feature", "properties": { "编号": 24, "道路名称": "槐东路", "道路长度": null, "road_type": 1 }, "geometry": { "type": "LineString", "coordinates": [ [ 111.004860948929974, 35.055707582764583 ], [ 111.006683277303381, 35.052503932027413 ], [ 111.007743812668238, 35.050804234236736 ] ] } },
{ "type": "Feature", "properties": { "编号": 24, "道路名称": "槐东路", "道路长度": null, "road_type": 1 }, "geometry": { "type": "LineString", "coordinates": [ [ 111.013987527914864, 35.038923704214454 ], [ 111.015989101702075, 35.035156793585898 ], [ 111.018871965440383, 35.029714034863574 ], [ 111.02093328769881, 35.025775453089977 ], [ 111.021665206471724, 35.024393234999799 ], [ 111.02242699948026, 35.023549214231579 ], [ 111.023621968905459, 35.022081331271643 ] ] } },
{ "type": "Feature", "properties": { "编号": 7, "道路名称": "禹都街", "道路长度": null, "road_type": 1 }, "geometry": { "type": "LineString", "coordinates": [ [ 110.99360583065635, 35.021763286490007 ], [ 110.996070455095833, 35.023867252065877 ], [ 110.998818884773769, 35.026044554779013 ], [ 111.001246166418738, 35.028056673423769 ], [ 111.00312824326339, 35.029616184199106 ], [ 111.005443496524705, 35.031512019970762 ], [ 111.006892396952736, 35.032729001049141 ], [ 111.017482813483539, 35.042054510768182 ], [ 111.019932500805169, 35.04437807869413 ], [ 111.023905774143955, 35.048095649913165 ] ] } },
{ "type": "Feature", "properties": { "编号": 48, "道路名称": "跨湖大道", "道路长度": null, "road_type": 1 }, "geometry": { "type": "LineString", "coordinates": [ [ 111.008191926202642, 35.005835000313084 ], [ 111.014465515684932, 34.997588263457203 ], [ 111.020216306043665, 34.989891375004021 ], [ 111.024936435273204, 34.983686837926932 ], [ 111.035989902456251, 34.969073111997034 ] ] } },
{ "type": "Feature", "properties": { "编号": 49, "道路名称": "禹西路", "道路长度": null, "road_type": 1 }, "geometry": { "type": "LineString", "coordinates": [ [ 111.023890837026173, 35.048058964181685 ], [ 111.026161278934026, 35.046591521410463 ], [ 111.027326374123604, 35.045099594234557 ], [ 111.029148702497011, 35.041284049971949 ], [ 111.030971030870447, 35.037933072468888 ], [ 111.032614113830078, 35.034826569116071 ], [ 111.034316945260983, 35.031842257833794 ] ] } },
{ "type": "Feature", "properties": { "编号": 56, "道路名称": "安邑东路", "道路长度": null, "road_type": 1 }, "geometry": { "type": "LineString", "coordinates": [ [ 111.055916017621371, 35.070140793595627 ], [ 111.067805963402037, 35.060115454004467 ], [ 111.077963203516177, 35.051507350922087 ] ] } },
{ "type": "Feature", "properties": { "编号": 35, "道路名称": "安邑路", "道路长度": null, "road_type": 1 }, "geometry": { "type": "LineString", "coordinates": [ [ 111.056035514563874, 35.060262175168418 ], [ 111.057260358224696, 35.059308482889641 ], [ 111.058096836822344, 35.058990582987846 ], [ 111.061771367804795, 35.056080518671962 ], [ 111.066790239390599, 35.052387766757867 ], [ 111.067835837637674, 35.051311701669654 ], [ 111.068732064706595, 35.049611979066661 ], [ 111.069717914482354, 35.047851078058585 ] ] } },
{ "type": "Feature", "properties": { "编号": 36, "道路名称": "安邑西路", "道路长度": null, "road_type": 1 }, "geometry": { "type": "LineString", "coordinates": [ [ 111.047924659590436, 35.054686585582672 ], [ 111.051315385334405, 35.05203315596556 ], [ 111.054048877894559, 35.049893230572792 ], [ 111.054915230727815, 35.049342954980688 ], [ 111.056408942509293, 35.048841589546868 ], [ 111.05814164817582, 35.0488293610832 ], [ 111.059829542488956, 35.049086158435621 ], [ 111.066521371270056, 35.05258341343248 ] ] } },
{ "type": "Feature", "properties": { "编号": 36, "道路名称": "安邑西路", "道路长度": null, "road_type": 1 }, "geometry": { "type": "LineString", "coordinates": [ [ 111.004412835395613, 35.095443185097082 ], [ 111.010387682521568, 35.092241094001338 ], [ 111.013763471147755, 35.089821109677402 ], [ 111.017527624837101, 35.087156599434884 ], [ 111.020515048400085, 35.085029817783322 ], [ 111.022128257124066, 35.083856397272228 ], [ 111.026071656227217, 35.079211442102967 ], [ 111.032166000295703, 35.072463562430407 ] ] } }
]
}
