{
"type": "FeatureCollection",
"name": "园林片区",
"crs": { "type": "name", "properties": { "name": "urn:ogc:def:crs:OGC:1.3:CRS84" } },
"features": [
{ "type": "Feature", "properties": { "id": 1, "zone_code": "YL_E", "zone_name": "园林西片区", "dept": "园林", "manager_org": "园林西片区", "manager_person": null, "manager_phone": null, "remark": null, "area_m2": null, "created_at": "2026-04-15T00:37:57.854", "updated_at": null }, "geometry": { "type": "Polygon", "coordinates": [ [ [ 110.961656303043057, 35.050257770206585 ], [ 110.974035919644578, 35.054369990721071 ], [ 110.979836894486709, 35.056228164701309 ], [ 110.982527201659863, 35.050739547334807 ], [ 110.986310446122147, 35.04282427721396 ], [ 110.989778420212517, 35.035527783746346 ], [ 110.99309926812937, 35.028815811181666 ], [ 110.989736384162939, 35.025545676150074 ], [ 110.985637869328826, 35.021604129024624 ], [ 110.984397805866166, 35.019986146373725 ], [ 110.984187625618276, 35.01964189061507 ], [ 110.980299291032054, 35.018901735825992 ], [ 110.976495028545017, 35.018092721765022 ], [ 110.974098973718895, 35.022946686066383 ], [ 110.970588963578948, 35.029968932861571 ], [ 110.961698339092592, 35.050223357445837 ], [ 110.961656303043057, 35.050257770206585 ] ] ] } }
]
}
