{
"type": "FeatureCollection",
"name": "执法片区",
"features": [
{ "type": "Feature", "properties": { "id": null, "dept_type": "执法", "area_name": "执法安邑分队", "area_manag": "雷立军", "area_phone": "13333590300", "squadron": "16中队", "squad_mana": "杨小勇", "squad_phon": "15535918080", "remark": null }, "geometry": { "type": "MultiPolygon", "coordinates": [ [ [ [ 111.0326522, 35.0348223 ], [ 111.034113, 35.0321894 ], [ 111.0357883, 35.0294991 ], [ 111.0373051, 35.030333 ], [ 111.0375824, 35.0305079 ], [ 111.0369604, 35.0313087 ], [ 111.0380085, 35.0318757 ], [ 111.0382208, 35.0315784 ], [ 111.0386615, 35.0310418 ], [ 111.0405874, 35.0319929 ], [ 111.0414303, 35.0309916 ], [ 111.0374356, 35.0284827 ], [ 111.0382353, 35.0273932 ], [ 111.0396385, 35.028191 ], [ 111.0414124, 35.0289709 ], [ 111.0466179, 35.0313284 ], [ 111.0512708, 35.0333524 ], [ 111.0529285, 35.0341382 ], [ 111.055284, 35.0349716 ], [ 111.0580176, 35.0360193 ], [ 111.0607222, 35.0370551 ], [ 111.0630486, 35.0379123 ], [ 111.0654914, 35.0388052 ], [ 111.0675853, 35.0393052 ], [ 111.0699263, 35.0398409 ], [ 111.0750591, 35.0410433 ], [ 111.0783161, 35.041829 ], [ 111.0813697, 35.0424481 ], [ 111.0797411, 35.0463765 ], [ 111.0780544, 35.0493763 ], [ 111.07714, 35.0507295 ], [ 111.0902713, 35.0564749 ], [ 111.1006787, 35.0614608 ], [ 111.1024052, 35.0633843 ], [ 111.1002432, 35.064439 ], [ 111.0993999, 35.0651293 ], [ 111.0967971, 35.0657125 ], [ 111.0946306, 35.06601 ], [ 111.092086, 35.0664385 ], [ 111.0852956, 35.0674977 ], [ 111.0798865, 35.0682593 ], [ 111.0789205, 35.0683723 ], [ 111.0781373, 35.0683501 ], [ 111.077274, 35.0673688 ], [ 111.076123, 35.0661715 ], [ 111.075452, 35.0654026 ], [ 111.0751638, 35.0650723 ], [ 111.074616, 35.0646941 ], [ 111.0728617, 35.0634825 ], [ 111.0682814, 35.0603812 ], [ 111.066411, 35.0590464 ], [ 111.0632216, 35.056946 ], [ 111.0588812, 35.0541978 ], [ 111.0569388, 35.0529415 ], [ 111.0562674, 35.0523133 ], [ 111.0558597, 35.0516262 ], [ 111.0552842, 35.0499183 ], [ 111.0547566, 35.0485244 ], [ 111.0542051, 35.047641 ], [ 111.053054, 35.0467379 ], [ 111.0516632, 35.0456385 ], [ 111.0511836, 35.0445195 ], [ 111.0504881, 35.043636 ], [ 111.049457, 35.0428703 ], [ 111.0462676, 35.0413782 ], [ 111.0431262, 35.039886 ], [ 111.0395532, 35.0381975 ], [ 111.037371, 35.0371176 ], [ 111.0325906, 35.0349436 ], [ 111.0326522, 35.0348223 ] ] ] ] } },
{ "type": "Feature", "properties": { "id": null, "dept_type": "执法", "area_name": "执法安邑分队", "area_manag": "雷立军", "area_phone": "13333590300", "squadron": "17中队", "squad_mana": "冯旭刚", "squad_phon": "18035922226", "remark": null }, "geometry": { "type": "MultiPolygon", "coordinates": [ [ [ [ 111.0365457, 35.0760405 ], [ 111.0400448, 35.0795466 ], [ 111.0468523, 35.0860522 ], [ 111.0463763, 35.0864301 ], [ 111.0459439, 35.086768 ], [ 111.0457281, 35.0866502 ], [ 111.0374309, 35.0785261 ], [ 111.0321212, 35.0732849 ], [ 111.0293774, 35.0762316 ], [ 111.0269594, 35.0788786 ], [ 111.0244793, 35.0815678 ], [ 111.0231669, 35.0831576 ], [ 111.0223151, 35.0841929 ], [ 111.0160042, 35.0885235 ], [ 111.0151773, 35.0891227 ], [ 111.0119879, 35.086768 ], [ 111.010693, 35.085934 ], [ 111.0089545, 35.0848155 ], [ 111.0090081, 35.0846779 ], [ 111.0093261, 35.0842366 ], [ 111.0124436, 35.0862774 ], [ 111.0160406, 35.0839619 ], [ 111.0161845, 35.083177 ], [ 111.0142661, 35.0815286 ], [ 111.0165682, 35.0794092 ], [ 111.0161845, 35.0776822 ], [ 111.0166641, 35.077486 ], [ 111.0187264, 35.0781925 ], [ 111.0195897, 35.077486 ], [ 111.0210483, 35.0750388 ], [ 111.020773, 35.0748628 ], [ 111.0189505, 35.0735969 ], [ 111.0166004, 35.0718404 ], [ 111.0166771, 35.0715892 ], [ 111.0136083, 35.0694996 ], [ 111.0137943, 35.0690429 ], [ 111.016109, 35.0650001 ], [ 111.015675, 35.0647463 ], [ 111.0128849, 35.063799 ], [ 111.0131536, 35.06319 ], [ 111.0127816, 35.0628348 ], [ 111.0130503, 35.0624795 ], [ 111.0146623, 35.0599758 ], [ 111.0157784, 35.0592822 ], [ 111.0202218, 35.0559494 ], [ 111.0189095, 35.0546805 ], [ 111.0166051, 35.0524388 ], [ 111.0168944, 35.0521766 ], [ 111.0222679, 35.0571759 ], [ 111.0231566, 35.0578865 ], [ 111.024686, 35.0595275 ], [ 111.025182, 35.0604072 ], [ 111.0268354, 35.0637567 ], [ 111.0280134, 35.0660235 ], [ 111.0285508, 35.0669539 ], [ 111.0300595, 35.0693559 ], [ 111.0320435, 35.0718255 ], [ 111.0324362, 35.0721807 ], [ 111.0339863, 35.0736692 ], [ 111.0365457, 35.0760405 ] ] ] ] } },
{ "type": "Feature", "properties": { "id": null, "dept_type": "执法", "area_name": "执法北片区", "area_manag": "程晓刚", "area_phone": "15333699833", "squadron": "11中队", "squad_mana": "李伟", "squad_phon": "19935580008", "remark": null }, "geometry": { "type": "MultiPolygon", "coordinates": [ [ [ [ 111.0134992, 35.0548079 ], [ 111.0135325, 35.0547988 ], [ 111.0042543, 35.0518622 ], [ 110.9950426, 35.0488711 ], [ 110.9955298, 35.0479103 ], [ 110.9982091, 35.0421091 ], [ 110.9992388, 35.0398519 ], [ 111.000036, 35.0381386 ], [ 110.999726, 35.0380389 ], [ 110.9934815, 35.0362077 ], [ 110.99295, 35.0360082 ], [ 110.990315, 35.0352105 ], [ 110.9916879, 35.0324545 ], [ 110.9934372, 35.0288825 ], [ 111.00328, 35.0299795 ], [ 111.0035014, 35.0300792 ], [ 111.0062804, 35.0324092 ], [ 111.0094248, 35.0350836 ], [ 111.0120267, 35.0374224 ], [ 111.0147393, 35.0397794 ], [ 111.0178394, 35.0426802 ], [ 111.0197769, 35.0444115 ], [ 111.0183597, 35.0467229 ], [ 111.0159129, 35.0508108 ], [ 111.0152596, 35.051826 ], [ 111.0134992, 35.0548079 ] ] ] ] } },
{ "type": "Feature", "properties": { "id": null, "dept_type": "执法", "area_name": "执法北片区", "area_manag": "程晓刚", "area_phone": "15333699833", "squadron": "9中队", "squad_mana": "周方", "squad_phon": "19935631115", "remark": null }, "geometry": { "type": "MultiPolygon", "coordinates": [ [ [ [ 110.9687102, 35.0227277 ], [ 110.9668826, 35.0221805 ], [ 110.9681226, 35.0197777 ], [ 110.9683448, 35.019848 ], [ 110.9699542, 35.0203758 ], [ 110.9699626, 35.0203592 ], [ 110.9706601, 35.0193074 ], [ 110.971413, 35.0182012 ], [ 110.972343, 35.0167957 ], [ 110.9723541, 35.0167821 ], [ 110.9729049, 35.0169657 ], [ 110.9741367, 35.0173783 ], [ 110.9767468, 35.0182624 ], [ 110.9832072, 35.0196179 ], [ 110.9834287, 35.02057 ], [ 110.9848237, 35.0211594 ], [ 110.9887431, 35.0248768 ], [ 110.9910239, 35.0270528 ], [ 110.9929725, 35.0288842 ], [ 110.9934372, 35.0288825 ], [ 110.990315, 35.0352105 ], [ 110.9901046, 35.0357997 ], [ 110.9839487, 35.0339866 ], [ 110.970264, 35.0298163 ], [ 110.96981, 35.0300611 ], [ 110.9686364, 35.0302424 ], [ 110.9666546, 35.0304328 ], [ 110.9653924, 35.0305507 ], [ 110.9651582, 35.0305872 ], [ 110.9624677, 35.0297803 ], [ 110.9636635, 35.0270332 ], [ 110.9640282, 35.0261099 ], [ 110.9665248, 35.0276104 ], [ 110.9667795, 35.0270006 ], [ 110.9671725, 35.0260804 ], [ 110.9675379, 35.0252236 ], [ 110.9685344, 35.0230521 ], [ 110.9687102, 35.0227277 ] ] ] ] } },
{ "type": "Feature", "properties": { "id": null, "dept_type": "执法", "area_name": "执法北片区", "area_manag": "程晓刚", "area_phone": "15333699833", "squadron": "10中队", "squad_mana": "周方", "squad_phon": "19935631115", "remark": null }, "geometry": { "type": "MultiPolygon", "coordinates": [ [ [ [ 110.9896953, 35.0356201 ], [ 110.9896634, 35.0356666 ], [ 110.9901046, 35.0357997 ], [ 110.990315, 35.0352105 ], [ 111.000036, 35.0381386 ], [ 110.9970483, 35.0446228 ], [ 110.9950426, 35.0488711 ], [ 110.9980932, 35.0498653 ], [ 111.0024333, 35.0512612 ], [ 111.0072164, 35.0527839 ], [ 111.0134992, 35.0548079 ], [ 111.011944, 35.0579228 ], [ 111.008091, 35.0567627 ], [ 111.0048138, 35.0557295 ], [ 111.0031364, 35.0591327 ], [ 111.0028596, 35.0596855 ], [ 111.0021399, 35.0611446 ], [ 111.0011878, 35.0631656 ], [ 110.9967701, 35.0616974 ], [ 110.9901824, 35.0595405 ], [ 110.9819672, 35.0568488 ], [ 110.9797528, 35.0560875 ], [ 110.9797971, 35.0559606 ], [ 110.9824765, 35.050595 ], [ 110.9846908, 35.0459904 ], [ 110.9869938, 35.0412587 ], [ 110.9896953, 35.0356201 ] ] ] ] } },
{ "type": "Feature", "properties": { "id": null, "dept_type": "执法", "area_name": "执法北片区", "area_manag": "程晓刚", "area_phone": "15333699833", "squadron": "8中队", "squad_mana": "张永康", "squad_phon": "13191191979", "remark": null }, "geometry": { "type": "MultiPolygon", "coordinates": [ [ [ [ 110.9896634, 35.0356666 ], [ 110.970264, 35.0298163 ], [ 110.970264, 35.0298163 ], [ 110.970264, 35.0298163 ], [ 110.9896634, 35.0356666 ], [ 110.9797528, 35.0560875 ], [ 110.9780685, 35.0597727 ], [ 110.9740606, 35.0584496 ], [ 110.9732357, 35.060099 ], [ 110.969117, 35.0589933 ], [ 110.9701522, 35.0567117 ], [ 110.9703294, 35.0563719 ], [ 110.9711708, 35.0546951 ], [ 110.9718185, 35.0535078 ], [ 110.9687018, 35.0524882 ], [ 110.9633874, 35.0507207 ], [ 110.9616491, 35.0501678 ], [ 110.9630663, 35.0468595 ], [ 110.9641513, 35.0445299 ], [ 110.9587262, 35.0427532 ], [ 110.9539099, 35.0412032 ], [ 110.9512638, 35.0403511 ], [ 110.9455175, 35.0385108 ], [ 110.9456283, 35.0383114 ], [ 110.9469569, 35.0356462 ], [ 110.9472558, 35.0352473 ], [ 110.947754, 35.034513 ], [ 110.9481748, 35.0336608 ], [ 110.9485955, 35.0328041 ], [ 110.9489221, 35.0321151 ], [ 110.9538933, 35.0316527 ], [ 110.9577463, 35.0312629 ], [ 110.960935, 35.0309819 ], [ 110.9651582, 35.0305872 ], [ 110.96981, 35.0300611 ], [ 110.970264, 35.0298163 ], [ 110.9896634, 35.0356666 ] ] ] ] } },
{ "type": "Feature", "properties": { "id": null, "dept_type": "执法", "area_name": "执法大渠片区", "area_manag": "孙秀芳", "area_phone": "13333590281", "squadron": "21中队", "squad_mana": "张春峰", "squad_phon": "13393598371", "remark": null }, "geometry": { "type": "MultiPolygon", "coordinates": [ [ [ [ 110.9605686, 35.0178225 ], [ 110.9595222, 35.0196023 ], [ 110.9569294, 35.0245609 ], [ 110.9553107, 35.0277151 ], [ 110.9564797, 35.0280342 ], [ 110.9553407, 35.0301942 ], [ 110.9522532, 35.0293597 ], [ 110.9532724, 35.0271751 ], [ 110.9518036, 35.0267578 ], [ 110.9454488, 35.0249659 ], [ 110.9462882, 35.0233949 ], [ 110.9482965, 35.0197373 ], [ 110.9511441, 35.014361 ], [ 110.9533323, 35.0106539 ], [ 110.9552807, 35.0111449 ], [ 110.9586005, 35.0119735 ], [ 110.960414, 35.0124829 ], [ 110.9645431, 35.0137058 ], [ 110.9661093, 35.0141661 ], [ 110.9666713, 35.0143196 ], [ 110.9674169, 35.0145436 ], [ 110.9681776, 35.0147952 ], [ 110.9688033, 35.015096 ], [ 110.969474, 35.0154397 ], [ 110.9703545, 35.0159399 ], [ 110.9707105, 35.0161271 ], [ 110.9710664, 35.0162836 ], [ 110.9714823, 35.0164493 ], [ 110.9723541, 35.0167821 ], [ 110.972343, 35.0167957 ], [ 110.9699542, 35.0203758 ], [ 110.9681226, 35.0197777 ], [ 110.9669261, 35.0193875 ], [ 110.9669036, 35.0194427 ], [ 110.9680464, 35.0197925 ], [ 110.9674057, 35.0210015 ], [ 110.966143, 35.0205366 ], [ 110.966705, 35.0195486 ], [ 110.9666301, 35.0195179 ], [ 110.9605686, 35.0178225 ] ] ] ] } },
{ "type": "Feature", "properties": { "id": null, "dept_type": "执法", "area_name": "执法大渠片区", "area_manag": "孙秀芳", "area_phone": "13333590281", "squadron": "21中队", "squad_mana": "张春峰", "squad_phon": "13393598371", "remark": null }, "geometry": { "type": "MultiPolygon", "coordinates": [ [ [ [ 110.9489221, 35.0321151 ], [ 110.947754, 35.034513 ], [ 110.9472558, 35.0352473 ], [ 110.9469569, 35.0356462 ], [ 110.9455175, 35.0385108 ], [ 110.9449543, 35.0403645 ], [ 110.9412523, 35.0394932 ], [ 110.9410725, 35.0398123 ], [ 110.9396936, 35.0394687 ], [ 110.9410575, 35.036634 ], [ 110.9423914, 35.0371126 ], [ 110.9449393, 35.0328297 ], [ 110.9450292, 35.0326824 ], [ 110.9412973, 35.0330138 ], [ 110.9398135, 35.0330751 ], [ 110.938045, 35.0329279 ], [ 110.9365312, 35.0326579 ], [ 110.9347477, 35.0321793 ], [ 110.9326944, 35.0312834 ], [ 110.9301615, 35.0300684 ], [ 110.92595, 35.0280925 ], [ 110.9230274, 35.0266934 ], [ 110.9232372, 35.0264479 ], [ 110.9286627, 35.029062 ], [ 110.9338934, 35.0315288 ], [ 110.9349425, 35.0319338 ], [ 110.936756, 35.0324493 ], [ 110.9383447, 35.0327438 ], [ 110.9402182, 35.0328542 ], [ 110.9418368, 35.0327438 ], [ 110.9448943, 35.032437 ], [ 110.9489221, 35.0321151 ] ] ] ] } },
{ "type": "Feature", "properties": { "id": null, "dept_type": "执法", "area_name": "执法大渠分队", "area_manag": "孙秀芳", "area_phone": "13333590281", "squadron": "21中队", "squad_mana": "张春峰", "squad_phon": "13393598371", "remark": null }, "geometry": { "type": "MultiPolygon", "coordinates": [ [ [ [ 110.9718185, 35.0535078 ], [ 110.9701522, 35.0567117 ], [ 110.9686347, 35.0562203 ], [ 110.9698337, 35.0539137 ], [ 110.9686347, 35.0535334 ], [ 110.9673008, 35.0531162 ], [ 110.9677242, 35.0522911 ], [ 110.9656709, 35.0539352 ], [ 110.9645843, 35.0548185 ], [ 110.9642845, 35.0548124 ], [ 110.9655585, 35.0538064 ], [ 110.9637974, 35.0533463 ], [ 110.9628682, 35.0530457 ], [ 110.9632729, 35.0521745 ], [ 110.9613994, 35.0516592 ], [ 110.9619465, 35.0503525 ], [ 110.9619877, 35.0502728 ], [ 110.96373, 35.050831 ], [ 110.9677542, 35.0521715 ], [ 110.969178, 35.0526438 ], [ 110.9718185, 35.0535078 ] ] ] ] } },
{ "type": "Feature", "properties": { "id": null, "dept_type": "执法", "area_name": "执法大渠片区", "area_manag": "孙秀芳", "area_phone": "13333590281", "squadron": "21中队", "squad_mana": "张春峰", "squad_phon": "13393598371", "remark": null }, "geometry": { "type": "MultiPolygon", "coordinates": [ [ [ [ 110.9497391, 35.0398644 ], [ 110.9474909, 35.0447237 ], [ 110.955824, 35.0451531 ], [ 110.9569931, 35.0421837 ], [ 110.9497241, 35.0398767 ], [ 110.9497391, 35.0398644 ] ] ] ] } },
{ "type": "Feature", "properties": { "id": null, "dept_type": "执法", "area_name": "执法大渠分队", "area_manag": "孙秀芳", "area_phone": "13333590281", "squadron": "22中队", "squad_mana": "郭学泽", "squad_phon": "13903594243", "remark": null }, "geometry": { "type": "MultiPolygon", "coordinates": [ [ [ [ 110.9615043, 35.0484906 ], [ 110.9614893, 35.0484783 ], [ 110.9612795, 35.0488832 ], [ 110.9605002, 35.0486992 ], [ 110.9602454, 35.0491164 ], [ 110.9583569, 35.0486133 ], [ 110.9580122, 35.0475949 ], [ 110.9615043, 35.0484906 ] ] ] ] } },
{ "type": "Feature", "properties": { "id": null, "dept_type": "执法", "area_name": "执法大渠分队", "area_manag": "孙秀芳", "area_phone": "13333590281", "squadron": "22中队", "squad_mana": "郭学泽", "squad_phon": "13903594243", "remark": null }, "geometry": { "type": "MultiPolygon", "coordinates": [ [ [ [ 110.9593544, 35.0628617 ], [ 110.9583419, 35.0642191 ], [ 110.9561238, 35.0669669 ], [ 110.9559439, 35.0671877 ], [ 110.9537724, 35.0666732 ], [ 110.953456, 35.0671264 ], [ 110.9526766, 35.0680832 ], [ 110.9513577, 35.069592 ], [ 110.9512678, 35.069543 ], [ 110.9505034, 35.0690032 ], [ 110.948555, 35.067752 ], [ 110.9493793, 35.0661328 ], [ 110.9497241, 35.0651882 ], [ 110.9505933, 35.0632744 ], [ 110.951043, 35.0634217 ], [ 110.9512828, 35.0625261 ], [ 110.9523019, 35.0603179 ], [ 110.953441, 35.0580605 ], [ 110.9544602, 35.0558767 ], [ 110.9548798, 35.0556804 ], [ 110.9553594, 35.0548952 ], [ 110.9563186, 35.0528586 ], [ 110.9578174, 35.0491654 ], [ 110.958297, 35.0492881 ], [ 110.9586567, 35.0493986 ], [ 110.9616491, 35.0501678 ], [ 110.9619877, 35.0502728 ], [ 110.9613994, 35.0516592 ], [ 110.9617441, 35.0517052 ], [ 110.9611446, 35.0529199 ], [ 110.9605451, 35.0541468 ], [ 110.9602143, 35.055134 ], [ 110.9607999, 35.0554105 ], [ 110.9611296, 35.056073 ], [ 110.9613395, 35.0571281 ], [ 110.9608299, 35.0599989 ], [ 110.9604341, 35.0609968 ], [ 110.9660756, 35.0622562 ], [ 110.9652962, 35.0641945 ], [ 110.9593544, 35.0628617 ] ] ] ] } },
{ "type": "Feature", "properties": { "id": null, "dept_type": "执法", "area_name": "执法东片区", "area_manag": "裴俊峰", "area_phone": "13393482277", "squadron": "2中队", "squad_mana": "张志鹏", "squad_phon": "13303489883", "remark": null }, "geometry": { "type": "MultiPolygon", "coordinates": [ [ [ [ 111.0325906, 35.0349436 ], [ 111.0305673, 35.0386496 ], [ 111.0295181, 35.0406498 ], [ 111.0285439, 35.0425027 ], [ 111.0274349, 35.0446378 ], [ 111.0268503, 35.0457176 ], [ 111.0264607, 35.0461716 ], [ 111.026071, 35.0465151 ], [ 111.0251418, 35.0472023 ], [ 111.0238678, 35.0480612 ], [ 111.0234781, 35.0482329 ], [ 111.0234519, 35.0481992 ], [ 111.0234219, 35.0481547 ], [ 111.0230135, 35.048374 ], [ 111.0226519, 35.0485566 ], [ 111.0197818, 35.0500151 ], [ 111.0195945, 35.0501071 ], [ 111.017766, 35.0483894 ], [ 111.0175074, 35.0481532 ], [ 111.0197769, 35.0444115 ], [ 111.01587, 35.0408308 ], [ 111.0147393, 35.0397794 ], [ 111.0138017, 35.0389472 ], [ 111.0143488, 35.0379102 ], [ 111.0152106, 35.0362781 ], [ 111.0165745, 35.0336888 ], [ 111.0180283, 35.0309398 ], [ 111.0185528, 35.029872 ], [ 111.0214155, 35.0307864 ], [ 111.0256195, 35.0321363 ], [ 111.0274255, 35.032842 ], [ 111.0291191, 35.0335783 ], [ 111.0319742, 35.0348669 ], [ 111.0324988, 35.0351123 ], [ 111.0323335, 35.0353966 ], [ 111.0325906, 35.0349436 ] ] ] ] } },
{ "type": "Feature", "properties": { "id": null, "dept_type": "执法", "area_name": "执法东片区", "area_manag": "裴俊峰", "area_phone": "13393482277", "squadron": "1中队", "squad_mana": "吴连科", "squad_phon": "13333599917", "remark": null }, "geometry": { "type": "MultiPolygon", "coordinates": [ [ [ [ 111.0185528, 35.029872 ], [ 111.0158541, 35.0350778 ], [ 111.0138017, 35.0389472 ], [ 111.0112679, 35.0367222 ], [ 111.0094248, 35.0350836 ], [ 111.0067342, 35.0328013 ], [ 111.0045759, 35.0309789 ], [ 111.0035014, 35.0300792 ], [ 111.0035718, 35.0299909 ], [ 111.0024252, 35.0290337 ], [ 111.000237, 35.0272602 ], [ 110.9980263, 35.0254193 ], [ 110.9985359, 35.0244497 ], [ 110.9967224, 35.0238483 ], [ 110.9970521, 35.0232223 ], [ 110.9964676, 35.0230382 ], [ 110.9975318, 35.0209271 ], [ 110.9982961, 35.021148 ], [ 110.9987158, 35.0203748 ], [ 110.9978765, 35.0200925 ], [ 110.9987308, 35.0183863 ], [ 111.0068391, 35.0211726 ], [ 111.0155768, 35.0241428 ], [ 111.0206726, 35.0259102 ], [ 111.0185528, 35.029872 ] ] ] ] } },
{ "type": "Feature", "properties": { "id": null, "dept_type": "执法", "area_name": "执法东片区", "area_manag": "裴俊峰", "area_phone": "13393482277", "squadron": "3中队", "squad_mana": "王暄", "squad_phon": "18003592560", "remark": null }, "geometry": { "type": "MultiPolygon", "coordinates": [ [ [ [ 111.0379946, 35.0318855 ], [ 111.0369604, 35.0313087 ], [ 111.0373951, 35.0307656 ], [ 111.0375824, 35.0305079 ], [ 111.0373051, 35.030333 ], [ 111.0377585, 35.0297992 ], [ 111.0383018, 35.0291825 ], [ 111.0404338, 35.0304711 ], [ 111.0413668, 35.0310909 ], [ 111.0407298, 35.0318272 ], [ 111.0405874, 35.0319929 ], [ 111.0386615, 35.0310418 ], [ 111.0382208, 35.0315784 ], [ 111.0380096, 35.0318763 ], [ 111.0379946, 35.0318855 ] ] ] ] } },
{ "type": "Feature", "properties": { "id": null, "dept_type": "执法", "area_name": "执法东片区", "area_manag": "裴俊峰", "area_phone": "13393482277", "squadron": "3中队", "squad_mana": "王暄", "squad_phon": "18003592560", "remark": null }, "geometry": { "type": "MultiPolygon", "coordinates": [ [ [ [ 111.0324988, 35.0351123 ], [ 111.034113, 35.0321894 ], [ 111.0324988, 35.0351123 ], [ 111.0262293, 35.0323426 ], [ 111.0185528, 35.029872 ], [ 111.0206726, 35.0259102 ], [ 111.0202567, 35.0257583 ], [ 111.0152808, 35.02404 ], [ 111.0097429, 35.0221622 ], [ 111.0049094, 35.0205113 ], [ 111.0027362, 35.0197687 ], [ 110.9987308, 35.0183863 ], [ 110.9991617, 35.0173936 ], [ 111.0002258, 35.0177435 ], [ 111.000533, 35.0169579 ], [ 110.9994164, 35.0166449 ], [ 111.0000534, 35.0152517 ], [ 111.0030959, 35.0159759 ], [ 111.0032458, 35.0156752 ], [ 111.003583, 35.0149632 ], [ 111.0038078, 35.0144538 ], [ 111.0044073, 35.0132018 ], [ 111.0067754, 35.0141224 ], [ 111.0081692, 35.0117533 ], [ 111.0101626, 35.0128949 ], [ 111.0122009, 35.0106117 ], [ 111.0122608, 35.010624 ], [ 111.0140743, 35.0120479 ], [ 111.0139844, 35.0121829 ], [ 111.0123208, 35.0140856 ], [ 111.0134598, 35.0148098 ], [ 111.0152134, 35.0129686 ], [ 111.0160227, 35.0134841 ], [ 111.020474, 35.0161846 ], [ 111.0238163, 35.0189218 ], [ 111.0273384, 35.0213275 ], [ 111.0330487, 35.0245555 ], [ 111.03744, 35.0269243 ], [ 111.0356415, 35.0297593 ], [ 111.034113, 35.0321894 ], [ 111.0324988, 35.0351123 ] ] ] ] } },
{ "type": "Feature", "properties": { "id": null, "dept_type": "执法", "area_name": "执法中片区", "area_manag": "王云峰", "area_phone": "13333590080", "squadron": "13中队", "squad_mana": "邵钧", "squad_phon": "13327480603", "remark": null }, "geometry": { "type": "MultiPolygon", "coordinates": [ [ [ [ 110.9900342, 35.0150216 ], [ 110.9900117, 35.0150852 ], [ 110.9907461, 35.0135263 ], [ 110.9929043, 35.0141892 ], [ 110.9928594, 35.0142751 ], [ 110.9934888, 35.014496 ], [ 110.9939535, 35.0135079 ], [ 110.9946242, 35.0137043 ], [ 110.9955646, 35.0139835 ], [ 110.995471, 35.0142014 ], [ 110.9964976, 35.0144745 ], [ 110.9966812, 35.014539 ], [ 110.9968423, 35.0144715 ], [ 110.9968798, 35.014315 ], [ 110.9978128, 35.014585 ], [ 110.9997087, 35.0151067 ], [ 111.0000534, 35.0152517 ], [ 110.9994164, 35.0166449 ], [ 111.000533, 35.0169579 ], [ 111.0002258, 35.0177435 ], [ 110.9991617, 35.0173936 ], [ 110.9987308, 35.0183863 ], [ 110.9978765, 35.0200925 ], [ 110.9987158, 35.0203748 ], [ 110.9982961, 35.021148 ], [ 110.9975318, 35.0209271 ], [ 110.9965426, 35.0228978 ], [ 110.9961641, 35.0227689 ], [ 110.9948677, 35.022367 ], [ 110.9938036, 35.0220202 ], [ 110.9936312, 35.0219098 ], [ 110.9935938, 35.0218193 ], [ 110.993605, 35.0215799 ], [ 110.9938523, 35.0209478 ], [ 110.9933127, 35.0207691 ], [ 110.993279, 35.0207016 ], [ 110.9912519, 35.0200848 ], [ 110.9913381, 35.0198516 ], [ 110.9907873, 35.0196859 ], [ 110.9881008, 35.0188482 ], [ 110.9881682, 35.0186518 ], [ 110.9869243, 35.0180043 ], [ 110.9870254, 35.0177772 ], [ 110.9875762, 35.0166848 ], [ 110.9879434, 35.0167983 ], [ 110.9883443, 35.0159882 ], [ 110.9884268, 35.0159299 ], [ 110.9893635, 35.016292 ], [ 110.9900342, 35.0150216 ] ] ] ] } },
{ "type": "Feature", "properties": { "id": null, "dept_type": "执法", "area_name": "执法中片区", "area_manag": "王云峰", "area_phone": "13333590080", "squadron": "12中队", "squad_mana": "何战均", "squad_phon": "15388593726", "remark": null }, "geometry": { "type": "MultiPolygon", "coordinates": [ [ [ [ 110.9833834, 35.0203633 ], [ 110.9869243, 35.0180043 ], [ 110.9881682, 35.0186518 ], [ 110.9881008, 35.0188482 ], [ 110.9913381, 35.0198516 ], [ 110.9912519, 35.0200848 ], [ 110.993279, 35.0207016 ], [ 110.9933127, 35.0207691 ], [ 110.9938523, 35.0209478 ], [ 110.993605, 35.0215799 ], [ 110.9935938, 35.0218193 ], [ 110.9938036, 35.0220202 ], [ 110.9965426, 35.0228978 ], [ 110.9964676, 35.0230382 ], [ 110.9970521, 35.0232223 ], [ 110.9967224, 35.0238483 ], [ 110.9985359, 35.0244497 ], [ 110.9980263, 35.0254193 ], [ 111.0012037, 35.0280219 ], [ 111.0035718, 35.0299909 ], [ 111.0035014, 35.0300792 ], [ 111.00328, 35.0299795 ], [ 110.9985059, 35.0294578 ], [ 110.9934372, 35.0288825 ], [ 110.9929725, 35.0288842 ], [ 110.9907124, 35.026721 ], [ 110.9869805, 35.0231862 ], [ 110.9848237, 35.0211594 ], [ 110.9834287, 35.02057 ], [ 110.9834134, 35.0203264 ], [ 110.9833834, 35.0203633 ] ] ] ] } },
{ "type": "Feature", "properties": { "id": null, "dept_type": "执法", "area_name": "执法南片区", "area_manag": "张庆忠", "area_phone": "13700597516", "squadron": "4中队", "squad_mana": "杨麦生", "squad_phon": "13363485551", "remark": null }, "geometry": { "type": "MultiPolygon", "coordinates": [ [ [ [ 110.9927334, 35.0097984 ], [ 110.9927577, 35.0098122 ], [ 110.9887485, 35.0064763 ], [ 110.9888385, 35.0057028 ], [ 110.9881153, 35.0054727 ], [ 110.9884863, 35.0046962 ], [ 110.9869613, 35.0041407 ], [ 110.9869482, 35.0041085 ], [ 110.9869631, 35.0040931 ], [ 110.9869388, 35.0040808 ], [ 110.9853707, 35.00351 ], [ 110.984005, 35.0030419 ], [ 110.9830289, 35.0027166 ], [ 110.9817268, 35.0022746 ], [ 110.9810468, 35.002049 ], [ 110.9809643, 35.0010485 ], [ 110.9808444, 34.9988938 ], [ 110.9807021, 34.99766 ], [ 110.9804623, 34.9969356 ], [ 110.9799377, 34.995892 ], [ 110.979518, 34.9953211 ], [ 110.9788811, 34.9946028 ], [ 110.9784239, 34.9942099 ], [ 110.9776746, 34.9936942 ], [ 110.9758985, 34.9924419 ], [ 110.9733731, 34.9907229 ], [ 110.9735305, 34.9904159 ], [ 110.9743848, 34.9888442 ], [ 110.9751641, 34.9877944 ], [ 110.9761233, 34.9865542 ], [ 110.9778319, 34.98505 ], [ 110.981961, 34.9881198 ], [ 110.9838195, 34.9894459 ], [ 110.9840143, 34.9897774 ], [ 110.9844864, 34.9902317 ], [ 110.99231, 34.9956341 ], [ 110.9999237, 35.0004715 ], [ 110.9990094, 35.0016132 ], [ 110.9981327, 35.0027519 ], [ 110.9971173, 35.0039611 ], [ 110.9962892, 35.0050384 ], [ 110.995049, 35.0065453 ], [ 110.9963379, 35.0065637 ], [ 110.9956035, 35.0082118 ], [ 110.9950302, 35.0079724 ], [ 110.9948804, 35.0082179 ], [ 110.9947117, 35.0081657 ], [ 110.9942846, 35.0087611 ], [ 110.9945843, 35.0088808 ], [ 110.9960794, 35.0094823 ], [ 110.9974695, 35.0099979 ], [ 110.9987696, 35.0105779 ], [ 110.9981626, 35.0118116 ], [ 110.9969374, 35.0141899 ], [ 110.9968175, 35.0141531 ], [ 110.9972634, 35.0132079 ], [ 110.9972297, 35.0131864 ], [ 110.9954611, 35.0125481 ], [ 110.995581, 35.0123272 ], [ 110.9955323, 35.0123088 ], [ 110.9939773, 35.0117318 ], [ 110.9945544, 35.0105963 ], [ 110.9927334, 35.0097984 ] ] ] ] } },
{ "type": "Feature", "properties": { "id": null, "dept_type": "执法", "area_name": "执法南片区", "area_manag": "张庆忠", "area_phone": "13700597516", "squadron": "5中队", "squad_mana": "王晓红", "squad_phon": "18610825594", "remark": null }, "geometry": { "type": "MultiPolygon", "coordinates": [ [ [ [ 111.0361769, 34.96901 ], [ 111.0362679, 34.9689157 ], [ 111.0362894, 34.9688847 ], [ 111.0374429, 34.9672159 ], [ 111.0376756, 34.9673397 ], [ 111.0378255, 34.9674871 ], [ 111.0426815, 34.9694522 ], [ 111.0474176, 34.9711225 ], [ 111.0495158, 34.9723997 ], [ 111.0515242, 34.9743893 ], [ 111.054102, 34.9770174 ], [ 111.0564701, 34.9788103 ], [ 111.0581787, 34.9796945 ], [ 111.062615, 34.9816838 ], [ 111.0720272, 34.9856133 ], [ 111.0692695, 34.9902056 ], [ 111.0576391, 34.9849748 ], [ 111.0580588, 34.9831083 ], [ 111.0466982, 34.9791296 ], [ 111.0364766, 34.9746103 ], [ 111.0343783, 34.9739472 ], [ 111.0344683, 34.973505 ], [ 111.0333892, 34.9729155 ], [ 111.0257755, 34.9829855 ], [ 111.0187912, 34.9921211 ], [ 111.0114473, 35.0019432 ], [ 111.0082399, 35.0060926 ], [ 111.0083748, 35.0062645 ], [ 111.0122608, 35.010624 ], [ 111.0122009, 35.0106117 ], [ 111.0101626, 35.0128949 ], [ 111.0081692, 35.0117533 ], [ 111.0067754, 35.0141224 ], [ 111.0059393, 35.0138017 ], [ 111.0044073, 35.0132018 ], [ 111.0038748, 35.0129916 ], [ 111.0037362, 35.0131941 ], [ 111.0034139, 35.0137588 ], [ 111.0031666, 35.0139122 ], [ 111.0026645, 35.0148328 ], [ 111.0023723, 35.0147714 ], [ 111.002125, 35.0152195 ], [ 111.0003714, 35.0146057 ], [ 111.0000534, 35.0152517 ], [ 110.9997087, 35.0151067 ], [ 110.9968798, 35.014315 ], [ 110.9969374, 35.0141899 ], [ 110.9987696, 35.0105779 ], [ 110.9942846, 35.0087611 ], [ 110.9947117, 35.0081657 ], [ 110.9948804, 35.0082179 ], [ 110.9950302, 35.0079724 ], [ 110.9956035, 35.0082118 ], [ 110.9963379, 35.0065637 ], [ 110.995049, 35.0065453 ], [ 110.9999237, 35.0004715 ], [ 111.0036987, 35.0029867 ], [ 111.0056771, 35.0047299 ], [ 111.0078203, 35.005933 ], [ 111.0080001, 35.0057489 ], [ 111.008195, 35.005442 ], [ 111.01419, 34.9974865 ], [ 111.0180868, 34.9921579 ], [ 111.0179744, 34.992072 ], [ 111.0178395, 34.9918018 ], [ 111.017877, 34.9915256 ], [ 111.0180568, 34.9913046 ], [ 111.0183041, 34.9911511 ], [ 111.0186339, 34.9911143 ], [ 111.0189636, 34.9911941 ], [ 111.019031, 34.991102 ], [ 111.0224782, 34.9866079 ], [ 111.0274541, 34.9800506 ], [ 111.0302118, 34.9764402 ], [ 111.0300919, 34.9763419 ], [ 111.0248462, 34.9739349 ], [ 111.0222983, 34.9726085 ], [ 111.0248462, 34.9693662 ], [ 111.014235, 34.9645762 ], [ 111.0206197, 34.9555604 ], [ 111.0212792, 34.9556709 ], [ 111.0273342, 34.9596016 ], [ 111.0302717, 34.9622548 ], [ 111.0282334, 34.9654728 ], [ 111.0316206, 34.9671186 ], [ 111.0356073, 34.9690592 ], [ 111.0358471, 34.9687398 ], [ 111.0361769, 34.96901 ] ] ] ] } },
{ "type": "Feature", "properties": { "id": null, "dept_type": "执法", "area_name": "执法姚孟分队", "area_manag": "许冬锋", "area_phone": "13333590173", "squadron": "18中队", "squad_mana": "李鹏", "squad_phon": "18535921461", "remark": null }, "geometry": { "type": "MultiPolygon", "coordinates": [ [ [ [ 111.003964, 35.0594135 ], [ 111.005486, 35.0564158 ], [ 111.0054852, 35.0564126 ], [ 111.0083336, 35.0572439 ], [ 111.0101921, 35.0578175 ], [ 111.0116534, 35.0582959 ], [ 111.0118445, 35.0579003 ], [ 111.011944, 35.0579228 ], [ 111.0124477, 35.0569341 ], [ 111.0133207, 35.0551582 ], [ 111.0135324, 35.0547595 ], [ 111.0137591, 35.0543669 ], [ 111.0138416, 35.0544006 ], [ 111.0140889, 35.0541553 ], [ 111.0144411, 35.0536706 ], [ 111.0148457, 35.0534007 ], [ 111.0155127, 35.053278 ], [ 111.0161871, 35.0531676 ], [ 111.0166517, 35.0531001 ], [ 111.0169515, 35.0531308 ], [ 111.0155876, 35.0556643 ], [ 111.0155726, 35.0556797 ], [ 111.0166218, 35.0560968 ], [ 111.0160522, 35.0569556 ], [ 111.0179706, 35.0576917 ], [ 111.0146623, 35.0599758 ], [ 111.0127816, 35.0628348 ], [ 111.0131536, 35.06319 ], [ 111.0128849, 35.063799 ], [ 111.016109, 35.0650001 ], [ 111.0136083, 35.0694996 ], [ 111.0146434, 35.070131 ], [ 111.0145235, 35.0710387 ], [ 111.013894, 35.0711369 ], [ 111.0138041, 35.0732467 ], [ 111.0134144, 35.0732957 ], [ 111.0133545, 35.0736882 ], [ 111.0129348, 35.0736637 ], [ 111.0133545, 35.0749148 ], [ 111.012755, 35.0761169 ], [ 111.0108365, 35.0766566 ], [ 111.0102071, 35.0774416 ], [ 111.0085284, 35.0768283 ], [ 111.0046616, 35.0819306 ], [ 111.0060405, 35.0827401 ], [ 111.0076292, 35.0838439 ], [ 111.0090081, 35.0846779 ], [ 111.0071946, 35.0878911 ], [ 111.0115709, 35.0911287 ], [ 111.0102221, 35.0920975 ], [ 111.0103719, 35.0922079 ], [ 111.0043169, 35.0954821 ], [ 110.9993036, 35.098229 ], [ 110.9952419, 35.1004852 ], [ 110.9911053, 35.1027537 ], [ 110.9910304, 35.1026801 ], [ 110.9941478, 35.1010002 ], [ 110.9904459, 35.0966042 ], [ 110.9878081, 35.0933913 ], [ 110.9860245, 35.0912575 ], [ 110.9862344, 35.09035 ], [ 110.9885275, 35.0884859 ], [ 110.99151, 35.0898227 ], [ 110.9938631, 35.0880812 ], [ 110.9945525, 35.0868548 ], [ 110.9954368, 35.084868 ], [ 110.9917498, 35.0837887 ], [ 110.992709, 35.0818264 ], [ 110.9945525, 35.0778402 ], [ 110.9969505, 35.0731056 ], [ 111.0007574, 35.0654021 ], [ 111.0016117, 35.065672 ], [ 111.0025109, 35.0639668 ], [ 111.0020313, 35.0637951 ], [ 111.0017016, 35.0636233 ], [ 111.0020107, 35.0631589 ], [ 111.003964, 35.0594135 ] ] ] ] } },
{ "type": "Feature", "properties": { "id": null, "dept_type": "执法", "area_name": "执法姚孟分队", "area_manag": "许冬锋", "area_phone": "13333590173", "squadron": "19中队", "squad_mana": "刘卫革", "squad_phon": "19903595757", "remark": null }, "geometry": { "type": "MultiPolygon", "coordinates": [ [ [ [ 110.9873845, 35.1047213 ], [ 110.9849679, 35.1019505 ], [ 110.9832443, 35.1052857 ], [ 110.9825099, 35.1047339 ], [ 110.9791827, 35.1026126 ], [ 110.9755557, 35.0999028 ], [ 110.9717039, 35.0961505 ], [ 110.9711044, 35.0960524 ], [ 110.9665856, 35.0948322 ], [ 110.9659786, 35.0959665 ], [ 110.9651393, 35.0957397 ], [ 110.9657163, 35.0946053 ], [ 110.9615123, 35.0934955 ], [ 110.9621867, 35.0918645 ], [ 110.9633558, 35.0894118 ], [ 110.9650644, 35.0863336 ], [ 110.9677771, 35.0811579 ], [ 110.9682567, 35.0801645 ], [ 110.9774291, 35.0841137 ], [ 110.977549, 35.0839175 ], [ 110.9779687, 35.0832552 ], [ 110.9802768, 35.0782634 ], [ 110.982465, 35.073909 ], [ 110.9839488, 35.0709651 ], [ 110.9851478, 35.0684137 ], [ 110.9866465, 35.0652242 ], [ 110.9881003, 35.0621819 ], [ 110.9895691, 35.0593234 ], [ 111.0011878, 35.0631656 ], [ 111.0048138, 35.0557295 ], [ 111.0118445, 35.0579003 ], [ 111.0116534, 35.0582959 ], [ 111.005486, 35.0564158 ], [ 111.0017016, 35.0636233 ], [ 111.0025109, 35.0639668 ], [ 111.0016117, 35.065672 ], [ 111.0007574, 35.0654021 ], [ 110.9949497, 35.0770184 ], [ 110.9917498, 35.0837887 ], [ 110.9954368, 35.084868 ], [ 110.9945525, 35.0868548 ], [ 110.9938631, 35.0880812 ], [ 110.99151, 35.0898227 ], [ 110.9885275, 35.0884859 ], [ 110.9862344, 35.09035 ], [ 110.9860245, 35.0912575 ], [ 110.9941478, 35.1010002 ], [ 110.9910304, 35.1026801 ], [ 110.9906482, 35.1029314 ], [ 110.9873978, 35.1047128 ], [ 110.9873845, 35.1047213 ] ] ] ] } },
{ "type": "Feature", "properties": { "id": null, "dept_type": "执法", "area_name": "执法姚孟分队", "area_manag": "许冬锋", "area_phone": "13333590173", "squadron": "20中队", "squad_mana": "卫洲杰", "squad_phon": "17703599218", "remark": null }, "geometry": { "type": "MultiPolygon", "coordinates": [ [ [ [ 110.9780685, 35.0597727 ], [ 110.9797528, 35.0560875 ], [ 110.9895691, 35.0593234 ], [ 110.9831863, 35.0725939 ], [ 110.9779687, 35.0832552 ], [ 110.9774291, 35.0841137 ], [ 110.9682567, 35.0801645 ], [ 110.9621867, 35.0918645 ], [ 110.9612444, 35.0915307 ], [ 110.9613643, 35.0912855 ], [ 110.9621137, 35.0898138 ], [ 110.9659805, 35.0828233 ], [ 110.9630429, 35.0820383 ], [ 110.9642119, 35.0796344 ], [ 110.9671495, 35.0804929 ], [ 110.9674493, 35.0799778 ], [ 110.9643318, 35.0766171 ], [ 110.9608847, 35.0735261 ], [ 110.9567931, 35.0702142 ], [ 110.9531061, 35.0675523 ], [ 110.9537724, 35.0666732 ], [ 110.9559439, 35.0671877 ], [ 110.9593544, 35.0628617 ], [ 110.9652962, 35.0641945 ], [ 110.9660756, 35.0622562 ], [ 110.9675692, 35.0591551 ], [ 110.9712037, 35.0601979 ], [ 110.9728223, 35.0606089 ], [ 110.9730247, 35.0604555 ], [ 110.9731483, 35.0600852 ], [ 110.9732279, 35.0601093 ], [ 110.9741918, 35.0603969 ], [ 110.9748962, 35.0606054 ], [ 110.9756063, 35.0608186 ], [ 110.9762788, 35.0610179 ], [ 110.9768147, 35.061182 ], [ 110.9770563, 35.0612449 ], [ 110.9770545, 35.0612403 ], [ 110.9773092, 35.0605778 ], [ 110.9772043, 35.0605533 ], [ 110.9762301, 35.0602957 ], [ 110.9767247, 35.0593142 ], [ 110.9780685, 35.0597727 ] ] ] ] } },
{ "type": "Feature", "properties": { "id": null, "dept_type": "执法", "area_name": "执法西片区", "area_manag": "马国锋", "area_phone": "15635918069", "squadron": "6中队", "squad_mana": "段武刚", "squad_phon": "17836161666", "remark": null }, "geometry": { "type": "MultiPolygon", "coordinates": [ [ [ [ 110.9669341, 35.0143944 ], [ 110.9677659, 35.0120314 ], [ 110.9684328, 35.0098095 ], [ 110.9687775, 35.0093062 ], [ 110.9690024, 35.0091712 ], [ 110.9691522, 35.008938 ], [ 110.9697367, 35.0084101 ], [ 110.9700065, 35.0083119 ], [ 110.9701864, 35.0079682 ], [ 110.9701714, 35.0076981 ], [ 110.9702613, 35.0074035 ], [ 110.9708308, 35.006581 ], [ 110.9718313, 35.0046966 ], [ 110.9809063, 35.0078193 ], [ 110.9814477, 35.0080265 ], [ 110.9820285, 35.0082582 ], [ 110.9827554, 35.0085497 ], [ 110.9831975, 35.0087093 ], [ 110.9839769, 35.0089671 ], [ 110.9848874, 35.0093385 ], [ 110.985307, 35.0095625 ], [ 110.9863486, 35.0101916 ], [ 110.9864985, 35.0102806 ], [ 110.9867458, 35.0103788 ], [ 110.9880685, 35.0110448 ], [ 110.9884507, 35.0112964 ], [ 110.9895448, 35.0117322 ], [ 110.9914482, 35.0122355 ], [ 110.9907461, 35.0135263 ], [ 110.9901068, 35.0149237 ], [ 110.9893635, 35.016292 ], [ 110.9884268, 35.0159299 ], [ 110.9861238, 35.0152398 ], [ 110.9854944, 35.0166023 ], [ 110.9853894, 35.0167619 ], [ 110.9862138, 35.0180753 ], [ 110.985869, 35.0182103 ], [ 110.9856143, 35.0189222 ], [ 110.9813353, 35.0192045 ], [ 110.9767468, 35.0182624 ], [ 110.972343, 35.0167957 ], [ 110.9710664, 35.0162836 ], [ 110.9703545, 35.0159399 ], [ 110.9688033, 35.015096 ], [ 110.9681776, 35.0147952 ], [ 110.9669341, 35.0143944 ] ] ] ] } },
{ "type": "Feature", "properties": { "id": null, "dept_type": "执法", "area_name": "执法西片区", "area_manag": "马国锋", "area_phone": "15635918069", "squadron": "7中队", "squad_mana": "郝孝君", "squad_phon": "18135914177", "remark": null }, "geometry": { "type": "MultiPolygon", "coordinates": [ [ [ [ 110.9965889, 35.0144972 ], [ 110.9966812, 35.014539 ], [ 110.995471, 35.0142014 ], [ 110.9955646, 35.0139835 ], [ 110.9939535, 35.0135079 ], [ 110.9934888, 35.014496 ], [ 110.9928594, 35.0142751 ], [ 110.9929043, 35.0141892 ], [ 110.9918791, 35.0138926 ], [ 110.9921189, 35.0134998 ], [ 110.9909798, 35.0131439 ], [ 110.9914482, 35.0122355 ], [ 110.9895448, 35.0117322 ], [ 110.9884507, 35.0112964 ], [ 110.9884507, 35.0112964 ], [ 110.9880685, 35.0110448 ], [ 110.9863486, 35.0101916 ], [ 110.9848874, 35.0093385 ], [ 110.9839769, 35.0089671 ], [ 110.9827554, 35.0085497 ], [ 110.9814477, 35.0080265 ], [ 110.9747482, 35.0057539 ], [ 110.977506, 35.0011133 ], [ 110.9797241, 35.0018499 ], [ 110.9804735, 35.0008432 ], [ 110.9782853, 35.000082 ], [ 110.9763669, 34.9969881 ], [ 110.9730996, 34.991242 ], [ 110.9733731, 34.9907229 ], [ 110.9758985, 34.9924419 ], [ 110.9790497, 34.9947413 ], [ 110.9800838, 34.9961042 ], [ 110.9807021, 34.99766 ], [ 110.9808032, 34.9983509 ], [ 110.9810468, 35.002049 ], [ 110.9821371, 35.0024085 ], [ 110.984005, 35.0030419 ], [ 110.9858241, 35.0036546 ], [ 110.9869388, 35.0040808 ], [ 110.986506, 35.0048915 ], [ 110.9874502, 35.0052536 ], [ 110.9878549, 35.0044434 ], [ 110.9884863, 35.0046962 ], [ 110.9881153, 35.0054727 ], [ 110.9888385, 35.0057028 ], [ 110.9887766, 35.0062802 ], [ 110.9887485, 35.0064763 ], [ 110.9887748, 35.0064935 ], [ 110.9884657, 35.0065334 ], [ 110.9881153, 35.0065442 ], [ 110.9879879, 35.0065764 ], [ 110.987394, 35.006736 ], [ 110.9868863, 35.0068925 ], [ 110.9866803, 35.0069784 ], [ 110.986476, 35.0069999 ], [ 110.9869744, 35.0075094 ], [ 110.9867121, 35.0080188 ], [ 110.9927334, 35.0097984 ], [ 110.9945544, 35.0105963 ], [ 110.9939773, 35.0117318 ], [ 110.995581, 35.0123272 ], [ 110.9954611, 35.0125481 ], [ 110.9969561, 35.013061 ], [ 110.9966414, 35.0136226 ], [ 110.9970086, 35.0137515 ], [ 110.9968175, 35.0141531 ], [ 110.9965889, 35.0144972 ] ] ] ] } },
{ "type": "Feature", "properties": { "id": null, "dept_type": "执法", "area_name": "执法安邑分队", "area_manag": "雷立军", "area_phone": "13333590300", "squadron": "15中队", "squad_mana": "谢勇", "squad_phon": "13103592225", "remark": null }, "geometry": { "type": "MultiPolygon", "coordinates": [ [ [ [ 111.0458242, 35.0469953 ], [ 111.0451885, 35.0479355 ], [ 111.044589, 35.0488582 ], [ 111.0437857, 35.0495257 ], [ 111.0428984, 35.0499379 ], [ 111.0420831, 35.0500459 ], [ 111.0411479, 35.0499968 ], [ 111.0412438, 35.0496631 ], [ 111.0408121, 35.0492705 ], [ 111.0358003, 35.0469146 ], [ 111.0335941, 35.0459428 ], [ 111.0342176, 35.045079 ], [ 111.0307045, 35.0435575 ], [ 111.0317956, 35.0419426 ], [ 111.0293736, 35.0409119 ], [ 111.0295181, 35.0406498 ], [ 111.0305673, 35.0386496 ], [ 111.0325906, 35.0349436 ], [ 111.0415915, 35.0391203 ], [ 111.0443492, 35.0404358 ], [ 111.049457, 35.0428703 ], [ 111.0504881, 35.043636 ], [ 111.0511836, 35.0445195 ], [ 111.0516632, 35.0456385 ], [ 111.0542051, 35.047641 ], [ 111.0550444, 35.048976 ], [ 111.0558597, 35.0516262 ], [ 111.0562674, 35.0523133 ], [ 111.0569388, 35.0529415 ], [ 111.0596965, 35.054669 ], [ 111.0693605, 35.0610093 ], [ 111.0751638, 35.0650723 ], [ 111.0781373, 35.0683501 ], [ 111.0777296, 35.068409 ], [ 111.0762668, 35.0666622 ], [ 111.0733892, 35.0681342 ], [ 111.0718785, 35.0667603 ], [ 111.0747561, 35.0652294 ], [ 111.0732214, 35.0641302 ], [ 111.0680416, 35.0606363 ], [ 111.0628379, 35.0648368 ], [ 111.0623344, 35.0644443 ], [ 111.0557158, 35.0597923 ], [ 111.0536295, 35.0583397 ], [ 111.048246, 35.0547671 ], [ 111.0477304, 35.0544039 ], [ 111.0487016, 35.0535795 ], [ 111.0521308, 35.0509882 ], [ 111.0546247, 35.0491821 ], [ 111.054289, 35.0482692 ], [ 111.0537494, 35.0476214 ], [ 111.0522747, 35.046522 ], [ 111.0513634, 35.045776 ], [ 111.0510157, 35.0449121 ], [ 111.0497687, 35.0460606 ], [ 111.0484738, 35.0476312 ], [ 111.0477064, 35.0475134 ], [ 111.0474187, 35.047906 ], [ 111.0458242, 35.0469953 ] ] ] ] } },
{ "type": "Feature", "properties": { "id": null, "dept_type": "执法", "area_name": "执法安邑分队", "area_manag": "雷立军", "area_phone": "13333590300", "squadron": "14中队", "squad_mana": "范辉", "squad_phon": "13100190101", "remark": null }, "geometry": { "type": "MultiPolygon", "coordinates": [ [ [ [ 111.0238678, 35.0480612 ], [ 111.0268503, 35.0457176 ], [ 111.0293736, 35.0409119 ], [ 111.0317956, 35.0419426 ], [ 111.0307045, 35.0435575 ], [ 111.0342176, 35.045079 ], [ 111.0335941, 35.0459428 ], [ 111.0408121, 35.0492705 ], [ 111.0412438, 35.0496631 ], [ 111.0411479, 35.0499968 ], [ 111.0406802, 35.0509293 ], [ 111.0406563, 35.0521661 ], [ 111.0412558, 35.0529317 ], [ 111.042143, 35.0533243 ], [ 111.0438696, 35.0534224 ], [ 111.0454283, 35.0534224 ], [ 111.0464115, 35.0538739 ], [ 111.0477304, 35.0544039 ], [ 111.0628379, 35.0648368 ], [ 111.0561714, 35.0703226 ], [ 111.0452365, 35.0789775 ], [ 111.0331505, 35.0672608 ], [ 111.0351408, 35.0650429 ], [ 111.0341696, 35.0640713 ], [ 111.0351048, 35.0631782 ], [ 111.0358482, 35.0636886 ], [ 111.0362319, 35.0631782 ], [ 111.0360521, 35.0630408 ], [ 111.0321913, 35.0610682 ], [ 111.0333903, 35.0595175 ], [ 111.0340737, 35.0588207 ], [ 111.0339778, 35.0587814 ], [ 111.0328627, 35.0576723 ], [ 111.0308124, 35.0554444 ], [ 111.0280427, 35.0522544 ], [ 111.0278508, 35.0524016 ], [ 111.0275151, 35.0519894 ], [ 111.0256686, 35.0501931 ], [ 111.0249972, 35.0496042 ], [ 111.0245775, 35.0490349 ], [ 111.0238678, 35.0480612 ] ] ] ] } },
{ "type": "Feature", "properties": { "id": null, "dept_type": "执法", "area_name": "盐湖生态保护执法分队", "area_manag": "仝明星", "area_phone": "13720990599", "squadron": "2中队", "squad_mana": "张明哲", "squad_phon": "15388593736", "remark": null }, "geometry": { "type": "MultiPolygon", "coordinates": [ [ [ [ 111.0078203, 35.005933 ], [ 111.0056771, 35.0047299 ], [ 111.0036987, 35.0029867 ], [ 111.00221, 35.0019888 ], [ 110.9999237, 35.0004715 ], [ 110.9981574, 34.9993468 ], [ 110.9959872, 34.9979767 ], [ 110.9931935, 34.9961989 ], [ 110.9917667, 34.9952707 ], [ 110.9896924, 34.9938366 ], [ 110.9886282, 34.9930913 ], [ 110.9882835, 34.9928531 ], [ 110.9855738, 34.9909807 ], [ 110.9858465, 34.9907498 ], [ 110.9867728, 34.991408 ], [ 110.987753, 34.9921348 ], [ 110.9896954, 34.9934584 ], [ 110.9916497, 34.9946469 ], [ 110.9957024, 34.997132 ], [ 110.997417, 34.9982222 ], [ 110.9989757, 34.9991749 ], [ 111.0009301, 35.0005598 ], [ 111.0030523, 35.0021607 ], [ 111.004635, 35.0034571 ], [ 111.005906, 35.0045129 ], [ 111.0063436, 35.0048223 ], [ 111.0080001, 35.0057489 ], [ 111.0078203, 35.005933 ] ] ] ] } },
{ "type": "Feature", "properties": { "id": null, "dept_type": "执法", "area_name": "盐湖生态保护执法分队", "area_manag": "仝明星", "area_phone": "13720990599", "squadron": "2中队", "squad_mana": "张明哲", "squad_phon": "15388593736", "remark": null }, "geometry": { "type": "MultiPolygon", "coordinates": [ [ [ [ 111.0120599, 35.0002922 ], [ 111.0069761, 34.9976501 ], [ 111.007072, 34.9975519 ], [ 111.0121918, 35.0001743 ], [ 111.0120959, 35.0002725 ], [ 111.0120599, 35.0002922 ] ] ] ] } },
{ "type": "Feature", "properties": { "id": null, "dept_type": "执法", "area_name": "盐湖生态保护执法分队", "area_manag": "仝明星", "area_phone": "13720990599", "squadron": "1中队", "squad_mana": "赵若莅", "squad_phon": "15503420552", "remark": null }, "geometry": { "type": "MultiPolygon", "coordinates": [ [ [ [ 111.0665878, 35.0385926 ], [ 111.0642138, 35.0377484 ], [ 111.0598734, 35.0360009 ], [ 111.0586504, 35.0355689 ], [ 111.0545738, 35.0342141 ], [ 111.050641, 35.0327611 ], [ 111.0478353, 35.0316026 ], [ 111.0455093, 35.0304833 ], [ 111.0416484, 35.0284411 ], [ 111.0362769, 35.0254956 ], [ 111.0321043, 35.0233158 ], [ 111.0289629, 35.0215091 ], [ 111.0265649, 35.0198791 ], [ 111.0234235, 35.0173064 ], [ 111.0201382, 35.0146747 ], [ 111.0176922, 35.0128482 ], [ 111.0150544, 35.0109627 ], [ 111.0122487, 35.0088022 ], [ 111.0101864, 35.0072505 ], [ 111.0083748, 35.0062645 ], [ 111.0082399, 35.0060926 ], [ 111.0084359, 35.0058952 ], [ 111.0114094, 35.0076041 ], [ 111.0134717, 35.0092932 ], [ 111.0161815, 35.0114144 ], [ 111.0219607, 35.0156371 ], [ 111.0249582, 35.0180724 ], [ 111.0271884, 35.0198595 ], [ 111.0303058, 35.0219215 ], [ 111.0341426, 35.0239835 ], [ 111.0418403, 35.0280288 ], [ 111.0474516, 35.0310135 ], [ 111.0513844, 35.0326629 ], [ 111.0564682, 35.0343515 ], [ 111.0616719, 35.0361776 ], [ 111.0667557, 35.0382196 ], [ 111.0666358, 35.0385926 ], [ 111.0665878, 35.0385926 ] ] ] ] } },
{ "type": "Feature", "properties": { "id": null, "dept_type": "执法", "area_name": "盐湖生态环保执法分队", "area_manag": "仝明星", "area_phone": "13720990599", "squadron": "1中队", "squad_mana": "赵若莅", "squad_phon": "15503420552", "remark": null }, "geometry": { "type": "MultiPolygon", "coordinates": [ [ [ [ 111.1217183, 35.0192114 ], [ 111.1202795, 35.0179152 ], [ 111.1245959, 35.0135945 ], [ 111.1268501, 35.0111591 ], [ 111.1303032, 35.0137909 ], [ 111.1282889, 35.015912 ], [ 111.1264664, 35.0147336 ], [ 111.1253633, 35.0158335 ], [ 111.1264184, 35.0166976 ], [ 111.124548, 35.018308 ], [ 111.1233969, 35.0176403 ], [ 111.1219101, 35.0190936 ], [ 111.1217183, 35.0192114 ] ] ] ] } },
{ "type": "Feature", "properties": { "id": null, "dept_type": "执法", "area_name": "盐湖生态保护执法分队", "area_manag": "仝明星", "area_phone": "13720990599", "squadron": "1中队", "squad_mana": "赵若莅", "squad_phon": "15503420552", "remark": null }, "geometry": { "type": "MultiPolygon", "coordinates": [ [ [ [ 111.1435163, 35.0242977 ], [ 111.1370896, 35.0291088 ], [ 111.1355788, 35.027852 ], [ 111.1374733, 35.0263989 ], [ 111.1327971, 35.0225499 ], [ 111.1342839, 35.0213127 ], [ 111.1359146, 35.0226874 ], [ 111.1371615, 35.0237479 ], [ 111.1388162, 35.0223928 ], [ 111.1404228, 35.0237479 ], [ 111.1418616, 35.0226481 ], [ 111.1434683, 35.0243174 ], [ 111.1435163, 35.0242977 ] ] ] ] } },
{ "type": "Feature", "properties": { "id": null, "dept_type": "执法", "area_name": "盐湖生态保护执法分队", "area_manag": "仝明星", "area_phone": "13720990599", "squadron": "1中队", "squad_mana": "赵若莅", "squad_phon": "15503420552", "remark": null }, "geometry": { "type": "MultiPolygon", "coordinates": [ [ [ [ 111.1483363, 35.012858 ], [ 111.1483603, 35.0128384 ], [ 111.1492475, 35.0118956 ], [ 111.1528925, 35.014115 ], [ 111.1518614, 35.0152541 ], [ 111.1483363, 35.012858 ] ] ] ] } },
{ "type": "Feature", "properties": { "id": null, "dept_type": "执法", "area_name": "盐湖生态保护执法分队", "area_manag": "仝明星", "area_phone": "13720990599", "squadron": "1中队", "squad_mana": "赵若莅", "squad_phon": "15503420552", "remark": null }, "geometry": { "type": "MultiPolygon", "coordinates": [ [ [ [ 111.037308, 34.9667983 ], [ 111.0382912, 34.9655308 ], [ 111.038591, 34.9656585 ], [ 111.0375838, 34.9669555 ], [ 111.0361769, 34.96901 ], [ 111.0358471, 34.9687398 ], [ 111.037308, 34.9667983 ] ] ] ] } }
]
}
